{"type": "FeatureCollection", "features": [{"type": "Feature", "geometry": {"type": "Point", "coordinates": [-93.628422, 41.581684]}, "properties": {"name": "Five-story mixed-use building at 900 Vine Street", "developer": "900 Vine LLC", "type": "Mixed-use", "address": "900 Vine Street", "tif_npv": 4500000, "tif_basis": "unverified (no NPV stated in source)", "cost": 42250000, "tif_pct": 10.7, "net_gain": 16681212, "assessed": 1170100, "rebate_pd": null, "status": "approved", "nbhd": "Downtown Des Moines", "ur_area": "DES MOINES METRO CENTER MERGED UR", "action_dt": "2026-07-13", "source_url": "https://councildocs.dsm.city/communications/2026/26-254.pdf"}}, {"type": "Feature", "geometry": {"type": "Point", "coordinates": [-93.611824, 41.585865]}, "properties": {"name": "Threshing Warehouse - historic renovation/conversion of 108 SE 4th Street to office", "developer": "Threshing Warehouse, LLC", "type": "Office", "address": "108 Southeast 4th Street", "tif_npv": 1750000, "tif_basis": "NPV (confirmed)", "cost": 13700000, "tif_pct": 12.8, "net_gain": 3575351, "assessed": 527000, "rebate_pd": null, "status": "approved", "nbhd": "Historic East Village", "ur_area": "DES MOINES METRO CENTER MERGED UR", "action_dt": "2026-06-29", "source_url": "https://councildocs.dsm.city/communications/2026/26-229.pdf"}}, {"type": "Feature", "geometry": {"type": "Point", "coordinates": [-93.652738, 41.58494]}, "properties": {"name": "Rehabilitation of commercial property and parking at 2700 Ingersoll Avenue", "developer": "Ingersoll Properties Group, LLC", "type": "Commercial (MAA / abatement)", "address": "2700 Ingersoll Avenue", "tif_npv": 850000, "tif_basis": "unverified (no NPV stated in source)", "cost": 8200000, "tif_pct": 10.4, "net_gain": null, "assessed": 2880000, "rebate_pd": null, "status": "approved", "nbhd": "Woodland Heights", "ur_area": "DES MOINES INGERSOLL-GRAND COMMERCIAL UR", "action_dt": "2026-06-08", "source_url": "https://councildocs.dsm.city/communications/2026/26-212.pdf"}}, {"type": "Feature", "geometry": {"type": "Point", "coordinates": [-93.701937, 41.614405]}, "properties": {"name": "Habitat for Humanity townhome project at 6100 Hickman Road", "developer": "Greater Des Moines Habitat for Humanity, Inc.", "type": "Residential", "address": "6100 Hickman Road", "tif_npv": 674000, "tif_basis": "unverified (no NPV stated in source)", "cost": 6200000, "tif_pct": 10.9, "net_gain": 3613879, "assessed": 636000, "rebate_pd": null, "status": "approved", "nbhd": "Merle Hay", "ur_area": null, "action_dt": "2026-06-08", "source_url": "https://councildocs.dsm.city/communications/2026/26-207.pdf"}}, {"type": "Feature", "geometry": {"type": "Point", "coordinates": [-93.636228, 41.599512]}, "properties": {"name": "Workforce Housing Tax Credit (WHTC) support resolutions - 4 projects", "developer": "JJR Holdings LLC; Kingman Place Townhomes, LLC; Lawmark LP; 615 Euclid LLC", "type": "Residential", "address": "1245 21st Street; 3125 Kingman Blvd; 606 Walnut Street; 615 Euclid Avenue", "tif_npv": null, "tif_basis": null, "cost": 93000000, "tif_pct": null, "net_gain": null, "assessed": 13887000, "rebate_pd": null, "status": "approved", "nbhd": "Cheatom Park", "ur_area": "DES MOINES METRO CENTER MERGED UR", "action_dt": "2026-05-04", "source_url": "https://councildocs.dsm.city/communications/2026/26-171.pdf"}}, {"type": "Feature", "geometry": {"type": "Point", "coordinates": [-93.695845, 41.639704]}, "properties": {"name": "Amended and Restated Minimum Assessment Agreement, 4347 Merle Hay Road", "developer": null, "type": "Commercial (MAA / abatement)", "address": "4347 Merle Hay Road", "tif_npv": null, "tif_basis": null, "cost": null, "tif_pct": null, "net_gain": null, "assessed": 12400000, "rebate_pd": null, "status": "approved", "nbhd": "Merle Hay", "ur_area": null, "action_dt": "2026-04-06", "source_url": "https://councildocs.dsm.city/communications/2026/26-127.pdf"}}, {"type": "Feature", "geometry": {"type": "Point", "coordinates": [-93.647165, 41.600741]}, "properties": {"name": "UA Station apartment building, 2211 University Avenue", "developer": "UA Station, LLC", "type": "Residential", "address": "2211 University Avenue", "tif_npv": 200000, "tif_basis": "unverified (no NPV stated in source)", "cost": 5480000, "tif_pct": 3.6, "net_gain": 2438540, "assessed": 257000, "rebate_pd": null, "status": "approved", "nbhd": "Drake", "ur_area": "Carpenter Urban Renewal Area", "action_dt": "2026-04-06", "source_url": "https://councildocs.dsm.city/communications/2026/26-120.pdf"}}, {"type": "Feature", "geometry": {"type": "Point", "coordinates": [-93.606684, 41.582352]}, "properties": {"name": "Foundry Lofts", "developer": "Market District Apartments, LP", "type": "Residential", "address": "509 SE 6th Street", "tif_npv": 625000, "tif_basis": "unverified (no NPV stated in source)", "cost": 15000000, "tif_pct": 4.2, "net_gain": 2116916, "assessed": 163000, "rebate_pd": null, "status": "approved", "nbhd": "Historic East Village", "ur_area": "DES MOINES METRO CENTER MERGED UR", "action_dt": "2026-03-09", "source_url": "https://councildocs.dsm.city/communications/2026/26-092.pdf"}}, {"type": "Feature", "geometry": {"type": "Point", "coordinates": [-93.667385, 41.586667]}, "properties": {"name": "Minimum assessment agreement for commercial tax abatement, 3711 Ingersoll Avenue", "developer": "INGERSOLL THEATER LLC", "type": "Commercial (MAA / abatement)", "address": "3711 Ingersoll Ave, Des Moines, IA 50312", "tif_npv": null, "tif_basis": null, "cost": null, "tif_pct": null, "net_gain": null, "assessed": 205000, "rebate_pd": null, "status": "approved", "nbhd": "North of Grand", "ur_area": "DES MOINES INGERSOLL-GRAND COMMERCIAL UR", "action_dt": "2026-03-09", "source_url": "https://councildocs.dsm.city/communications/2026/26-093.pdf"}}, {"type": "Feature", "geometry": {"type": "Point", "coordinates": [-93.620532, 41.584144]}, "properties": {"name": "Rehabilitation of Davidson Warehouse office building, 108 3rd Street", "developer": "JDS Real Estate Investments LLC", "type": "Office", "address": "108 3rd Street", "tif_npv": 1300000, "tif_basis": "unverified (no NPV stated in source)", "cost": 7400000, "tif_pct": 17.6, "net_gain": null, "assessed": 1250000, "rebate_pd": null, "status": "approved", "nbhd": "Downtown Des Moines", "ur_area": "DES MOINES METRO CENTER MERGED UR", "action_dt": "2026-02-23", "source_url": "https://councildocs.dsm.city/communications/2026/26-069.pdf"}}, {"type": "Feature", "geometry": {"type": "Point", "coordinates": [-93.629409, 41.586203]}, "properties": {"name": "OpenLoop Health HQJ Program / Development Agreement 1st Amendment", "developer": "OpenLoop Health, Inc.", "type": "Office", "address": "909 Locust Street (relocated from 317 6th Avenue)", "tif_npv": null, "tif_basis": null, "cost": null, "tif_pct": null, "net_gain": null, "assessed": 31600000, "rebate_pd": null, "status": "approved", "nbhd": "Downtown Des Moines", "ur_area": "DES MOINES METRO CENTER MERGED UR", "action_dt": "2026-02-23", "source_url": "https://councildocs.dsm.city/communications/2026/26-049.pdf"}}, {"type": "Feature", "geometry": {"type": "Point", "coordinates": [-93.62215, 41.527039]}, "properties": {"name": "Minimum assessment agreements for commercial tax abatement (2 properties)", "developer": "UTILITY SPECIALISTS LLC; REASONER'S GARAGE INC.", "type": "Commercial (MAA / abatement)", "address": "601 Army Post Rd and 403 E. Jackson Ave, Des Moines, IA 50315", "tif_npv": null, "tif_basis": null, "cost": null, "tif_pct": null, "net_gain": null, "assessed": 56000, "rebate_pd": null, "status": "approved", "nbhd": "South Central DSM", "ur_area": null, "action_dt": "2026-02-09", "source_url": "https://councildocs.dsm.city/communications/2026/26-035.pdf"}}, {"type": "Feature", "geometry": {"type": "Point", "coordinates": [-93.663544, 41.586015]}, "properties": {"name": "Goldfinch mixed-use redevelopment of 3404-3422 Ingersoll Avenue", "developer": "Goldfinch Apartments, LP, Goldfinch Commercial, LLC and VisionBank of Iowa", "type": "Mixed-use", "address": "3404-3422 Ingersoll Avenue", "tif_npv": null, "tif_basis": null, "cost": 12355000, "tif_pct": null, "net_gain": null, "assessed": 689000, "rebate_pd": null, "status": "approved", "nbhd": "North of Grand", "ur_area": "DES MOINES INGERSOLL-GRAND COMMERCIAL UR", "action_dt": "2025-12-08", "source_url": "https://councildocs.dsm.city/communications/2025/25-443.pdf"}}, {"type": "Feature", "geometry": {"type": "Point", "coordinates": [-93.623252, 41.598134]}, "properties": {"name": "Four minimum assessment agreements for commercial tax abatement (Iowa Code 404)", "developer": null, "type": "Commercial (MAA / abatement)", "address": "4814 SW 9th Street; 515 Euclid Avenue; 2001 E Grand Avenue; 3115 Douglas Avenue", "tif_npv": null, "tif_basis": null, "cost": null, "tif_pct": null, "net_gain": null, "assessed": 1750300, "rebate_pd": null, "status": "approved", "nbhd": "Cheatom Park", "ur_area": null, "action_dt": "2025-12-08", "source_url": "https://councildocs.dsm.city/communications/2025/25-447.pdf"}}, {"type": "Feature", "geometry": {"type": "Point", "coordinates": [-93.599208, 41.518305]}, "properties": {"name": "ECG Southridge 160-unit apartment building at 7210 SE 14th Street", "developer": "ECG Southridge, LP", "type": "Residential", "address": "7210 SE 14th Street", "tif_npv": 1380798, "tif_basis": "unverified (no NPV stated in source)", "cost": 61733000, "tif_pct": 2.2, "net_gain": null, "assessed": 21740, "rebate_pd": null, "status": "approved", "nbhd": null, "ur_area": "Southside Urban Renewal Area", "action_dt": "2025-09-08", "source_url": "https://councildocs.dsm.city/communications/2025/25-330.pdf"}}, {"type": "Feature", "geometry": {"type": "Point", "coordinates": [-93.593725, 41.598486]}, "properties": {"name": "1603 Walker Street housing project (WHTC application)", "developer": "61st Street Construction LLC (VareCo)", "type": "Residential", "address": "1603 Walker Street", "tif_npv": null, "tif_basis": null, "cost": 1980000, "tif_pct": null, "net_gain": null, "assessed": 12900, "rebate_pd": null, "status": "approved", "nbhd": "Martin Luther King Jr. Park", "ur_area": null, "action_dt": "2025-06-09", "source_url": "https://councildocs.dsm.city/communications/2025/25-231.pdf"}}, {"type": "Feature", "geometry": {"type": "Point", "coordinates": [-93.626618, 41.604422]}, "properties": {"name": "Urban Dreams WHTC housing project at 1411 7th Street", "developer": "Urban Dreams", "type": "Residential", "address": "1411 7th Street", "tif_npv": null, "tif_basis": null, "cost": 1750000, "tif_pct": null, "net_gain": null, "assessed": 24500, "rebate_pd": null, "status": "approved", "nbhd": "River Bend", "ur_area": "DES MOINES METRO CENTER MERGED UR", "action_dt": "2025-06-09", "source_url": "https://councildocs.dsm.city/communications/2025/25-231.pdf"}}, {"type": "Feature", "geometry": {"type": "Point", "coordinates": [-93.696917, 41.637194]}, "properties": {"name": "Minimum Assessment Agreements - 4205 and 4241 Merle Hay Road", "developer": null, "type": "Commercial (MAA / abatement)", "address": "4205 Merle Hay Road; 4241 Merle Hay Road", "tif_npv": null, "tif_basis": null, "cost": null, "tif_pct": null, "net_gain": null, "assessed": 1744000, "rebate_pd": null, "status": "approved", "nbhd": "Merle Hay", "ur_area": null, "action_dt": "2025-06-09", "source_url": "https://councildocs.dsm.city/communications/2025/25-217.pdf"}}, {"type": "Feature", "geometry": {"type": "Point", "coordinates": [-93.615012, 41.586863]}, "properties": {"name": "Riverview multilevel parking structure and 218 E. 2nd Street office renovation", "developer": "Riverview Parking LLC", "type": "Parking", "address": "200, 210, and 216 E. Court Avenue (parking structure); 218 E. 2nd Street (office building)", "tif_npv": 6020000, "tif_basis": "unverified (no NPV stated in source)", "cost": 36300000, "tif_pct": 16.6, "net_gain": 9755865, "assessed": 7700000, "rebate_pd": null, "status": "approved", "nbhd": "Historic East Village", "ur_area": "DES MOINES METRO CENTER MERGED UR", "action_dt": "2025-05-19", "source_url": "https://councildocs.dsm.city/communications/2025/25-196.pdf"}}, {"type": "Feature", "geometry": {"type": "Point", "coordinates": [-93.62391, 41.628183]}, "properties": {"name": "Highland Park Flats", "developer": "Highland Park Flats LLC", "type": "Residential", "address": "3608-3610 5th Avenue", "tif_npv": 252608, "tif_basis": "unverified (no NPV stated in source)", "cost": 2635000, "tif_pct": 9.6, "net_gain": 794817, "assessed": 89600, "rebate_pd": null, "status": "approved", "nbhd": "Highland Park/Oak Park", "ur_area": "DES MOINES OAK PARK-HIGHLAND PARK UR", "action_dt": "2025-05-19", "source_url": "https://councildocs.dsm.city/communications/2025/25-194.pdf"}}, {"type": "Feature", "geometry": {"type": "Point", "coordinates": [-93.663544, 41.586015]}, "properties": {"name": "Goldfinch Apartments mixed-use redevelopment", "developer": "Goldfinch Apartments, LP", "type": "Mixed-use", "address": "3404-3422 Ingersoll Avenue", "tif_npv": null, "tif_basis": null, "cost": 12355000, "tif_pct": null, "net_gain": 4366989, "assessed": 689000, "rebate_pd": null, "status": "approved", "nbhd": "North of Grand", "ur_area": "DES MOINES INGERSOLL-GRAND COMMERCIAL UR", "action_dt": "2025-05-05", "source_url": "https://councildocs.dsm.city/communications/2025/25-186.pdf"}}, {"type": "Feature", "geometry": {"type": "Point", "coordinates": [-93.625302, 41.608085]}, "properties": {"name": "1601 6th Avenue historic renovation and mixed-use/food hall new construction", "developer": "Townhall Associates LP", "type": "Mixed-use", "address": "1601 6th Avenue and 1605/1609/1619 6th Avenue", "tif_npv": 460000, "tif_basis": "NPV (confirmed)", "cost": 13100000, "tif_pct": 3.5, "net_gain": 864929, "assessed": 446700, "rebate_pd": null, "status": "approved", "nbhd": "River Bend", "ur_area": "DES MOINES METRO CENTER MERGED UR", "action_dt": "2025-04-21", "source_url": "https://councildocs.dsm.city/communications/2025/25-163.pdf"}}, {"type": "Feature", "geometry": {"type": "Point", "coordinates": [-93.605619, 41.58359]}, "properties": {"name": "Newbury Commons", "developer": "Newbury Management Company and Newbury Commons Associates, L.P.", "type": "Residential", "address": "401 SE 7th Street", "tif_npv": 560000, "tif_basis": "unverified (no NPV stated in source)", "cost": 13830000, "tif_pct": 4.0, "net_gain": null, "assessed": 0, "rebate_pd": null, "status": "approved", "nbhd": "Historic East Village", "ur_area": "Metro Center Urban Renewal Area", "action_dt": "2025-02-10", "source_url": "https://councildocs.dsm.city/communications/2025/25-061.pdf"}}, {"type": "Feature", "geometry": {"type": "Point", "coordinates": [-93.625155, 41.585416]}, "properties": {"name": "Financial Center building renovation (office-to-housing conversion)", "developer": "Lawmark, LP", "type": "Residential", "address": "606 and 666 Walnut Street", "tif_npv": 10000000, "tif_basis": "NPV (confirmed)", "cost": null, "tif_pct": null, "net_gain": 20552155, "assessed": 13607000, "rebate_pd": null, "status": "approved", "nbhd": "Downtown Des Moines", "ur_area": "DES MOINES METRO CENTER MERGED UR", "action_dt": "2025-01-27", "source_url": "https://councildocs.dsm.city/communications/2025/25-030.pdf"}}, {"type": "Feature", "geometry": {"type": "Point", "coordinates": [-93.620214, 41.627347]}, "properties": {"name": "Rehabilitation and redevelopment of 200 Euclid Avenue", "developer": "Housing For All", "type": "Residential", "address": "200 Euclid Avenue", "tif_npv": null, "tif_basis": null, "cost": null, "tif_pct": null, "net_gain": null, "assessed": 356000, "rebate_pd": null, "status": "approved", "nbhd": "Highland Park/Oak Park", "ur_area": null, "action_dt": "2025-01-27", "source_url": "https://councildocs.dsm.city/communications/2025/25-036.pdf"}}, {"type": "Feature", "geometry": {"type": "Point", "coordinates": [-93.625428, 41.587]}, "properties": {"name": "601 Locust conversion (Two Ruan building)", "developer": "Ruan Redevelopment Partners, LLC", "type": "Residential", "address": "601 Locust Street", "tif_npv": 2770000, "tif_basis": "NPV (corrected from cash)", "cost": 81200000, "tif_pct": 3.4, "net_gain": 8825094, "assessed": 1310100, "rebate_pd": null, "status": "approved", "nbhd": "Downtown Des Moines", "ur_area": "DES MOINES METRO CENTER MERGED UR", "action_dt": "2024-06-17", "source_url": "https://councildocs.dsm.city/communications/2024/24-274.pdf"}}, {"type": "Feature", "geometry": {"type": "Point", "coordinates": [-93.608655, 41.581019]}, "properties": {"name": "Scott Avenue Landing townhomes", "developer": "Scott Avenue Landing, LLC", "type": "Residential", "address": "417 Scott Avenue", "tif_npv": null, "tif_basis": null, "cost": 12856000, "tif_pct": null, "net_gain": null, "assessed": 49300, "rebate_pd": null, "status": "approved", "nbhd": "Historic East Village", "ur_area": "DES MOINES METRO CENTER MERGED UR", "action_dt": "2024-06-03", "source_url": "https://councildocs.dsm.city/communications/2024/24-240.pdf"}}, {"type": "Feature", "geometry": {"type": "Point", "coordinates": [-93.625532, 41.611019]}, "properties": {"name": "Joppa Experience restaurant", "developer": "Joppa Experience LLC", "type": "Retail / restaurant", "address": "1829 6th Avenue", "tif_npv": null, "tif_basis": null, "cost": null, "tif_pct": null, "net_gain": null, "assessed": 168000, "rebate_pd": null, "status": "approved", "nbhd": "River Bend", "ur_area": "DES MOINES METRO CENTER MERGED UR", "action_dt": "2024-06-03", "source_url": "https://councildocs.dsm.city/communications/2024/24-241.pdf"}}, {"type": "Feature", "geometry": {"type": "Point", "coordinates": [-93.63096, 41.585013]}, "properties": {"name": "American Equity downtown office relocation (1100 Locust Street)", "developer": "American Equity Investment Life Insurance Company", "type": "Office", "address": "1100 Locust Street", "tif_npv": null, "tif_basis": null, "cost": 9100000, "tif_pct": null, "net_gain": null, "assessed": 63500000, "rebate_pd": null, "status": "approved", "nbhd": "Downtown Des Moines", "ur_area": "DES MOINES METRO CENTER MERGED UR", "action_dt": "2024-06-03", "source_url": "https://councildocs.dsm.city/communications/2024/24-242.pdf"}}, {"type": "Feature", "geometry": {"type": "Point", "coordinates": [-93.635195, 41.582914]}, "properties": {"name": "1435 Mulberry 202-unit mixed-use apartment building", "developer": "1435 Mulberry, LLC", "type": "Mixed-use", "address": "1435 Mulberry Street", "tif_npv": 5300000, "tif_basis": "unverified (no NPV stated in source)", "cost": 62000000, "tif_pct": 8.5, "net_gain": 18951064, "assessed": 1310000, "rebate_pd": null, "status": "approved", "nbhd": "Downtown Des Moines", "ur_area": "DES MOINES METRO CENTER MERGED UR", "action_dt": "2024-01-22", "source_url": "https://councildocs.dsm.city/communications/2024/24-024.pdf"}}, {"type": "Feature", "geometry": {"type": "Point", "coordinates": [-93.62616, 41.609697]}, "properties": {"name": "Center at Sixth mixed-use / retail incubator", "developer": "Center at Sixth", "type": "Mixed-use", "address": "1760 6th Avenue", "tif_npv": 850000, "tif_basis": "unverified (no NPV stated in source)", "cost": 8650000, "tif_pct": 9.8, "net_gain": null, "assessed": 2330000, "rebate_pd": 300000, "status": "completed", "nbhd": "River Bend", "ur_area": "DES MOINES METRO CENTER MERGED UR", "action_dt": "2023-12-04", "source_url": "https://councildocs.dsm.city/communications/2023/23-545.pdf"}}, {"type": "Feature", "geometry": {"type": "Point", "coordinates": [-93.63096, 41.585013]}, "properties": {"name": "Maverik/Kum & Go (FJ Management) regional headquarters office", "developer": "Mav KG, LLC", "type": "Office", "address": "1100 Locust Street", "tif_npv": null, "tif_basis": null, "cost": 1000000, "tif_pct": null, "net_gain": null, "assessed": 63500000, "rebate_pd": 8866285, "status": "approved", "nbhd": "Downtown Des Moines", "ur_area": "DES MOINES METRO CENTER MERGED UR", "action_dt": "2023-11-06", "source_url": "https://councildocs.dsm.city/communications/2023/23-504.pdf"}}, {"type": "Feature", "geometry": {"type": "Point", "coordinates": [-93.613057, 41.58566]}, "properties": {"name": "Market One building", "developer": "Market One, L.L.C.", "type": "Other", "address": "130 East 3rd Street", "tif_npv": null, "tif_basis": null, "cost": null, "tif_pct": null, "net_gain": null, "assessed": 4930000, "rebate_pd": 1984051, "status": "approved", "nbhd": "Historic East Village", "ur_area": "DES MOINES METRO CENTER MERGED UR", "action_dt": "2023-11-06", "source_url": "https://councildocs.dsm.city/communications/2023/23-502.pdf"}}, {"type": "Feature", "geometry": {"type": "Point", "coordinates": [-93.625003, 41.582224]}, "properties": {"name": "Carpenter Paper Warehouse renovation (106 SW 7th Street)", "developer": "106 SW 7th Street, LLC", "type": "Industrial / warehouse", "address": "106 SW 7th Street", "tif_npv": 4000000, "tif_basis": "NPV (corrected from cash)", "cost": 21900000, "tif_pct": 18.3, "net_gain": 6551996, "assessed": 6150000, "rebate_pd": null, "status": "completed", "nbhd": "Downtown Des Moines", "ur_area": "DES MOINES METRO CENTER MERGED UR", "action_dt": "2023-08-07", "source_url": "https://councildocs.dsm.city/communications/2023/23-360.pdf"}}, {"type": "Feature", "geometry": {"type": "Point", "coordinates": [-93.625133, 41.628346]}, "properties": {"name": "36 on 6th (3614 6th Avenue renovation)", "developer": "36 on 6th, LLC", "type": "Mixed-use", "address": "3614 6th Avenue", "tif_npv": 809530, "tif_basis": "unverified (no NPV stated in source)", "cost": 3500000, "tif_pct": 23.1, "net_gain": 958500, "assessed": 241500, "rebate_pd": null, "status": "completed", "nbhd": "Highland Park/Oak Park", "ur_area": "DES MOINES OAK PARK-HIGHLAND PARK UR", "action_dt": "2023-08-07", "source_url": "https://councildocs.dsm.city/communications/2023/23-356.pdf"}}, {"type": "Feature", "geometry": {"type": "Point", "coordinates": [-93.610074, 41.592393]}, "properties": {"name": "Aston - 186-unit mixed-use apartment building at 603 E. 6th Street", "developer": "HOA Development, LLC", "type": "Mixed-use", "address": "603 East 6th Street", "tif_npv": 4500000, "tif_basis": "unverified (no NPV stated in source)", "cost": 44000000, "tif_pct": 10.2, "net_gain": 16036600, "assessed": 801000, "rebate_pd": null, "status": "approved", "nbhd": "Historic East Village", "ur_area": "DES MOINES UPPER EAST VILLAGE URBAN RENEWAL", "action_dt": "2023-06-26", "source_url": "https://councildocs.dsm.city/communications/2023/23-311.pdf"}}, {"type": "Feature", "geometry": {"type": "Point", "coordinates": [-93.62453, 41.586659]}, "properties": {"name": "OpenLoop Health office renovation/expansion at 317 6th Avenue", "developer": "OpenLoop Health, Inc.", "type": "Office", "address": "317 6th Avenue, Des Moines, IA 50309", "tif_npv": null, "tif_basis": null, "cost": 18900000, "tif_pct": null, "net_gain": null, "assessed": 5220000, "rebate_pd": null, "status": "approved", "nbhd": "Downtown Des Moines", "ur_area": "DES MOINES METRO CENTER MERGED UR", "action_dt": "2023-04-10", "source_url": "https://councildocs.dsm.city/communications/2023/23-195.pdf"}}, {"type": "Feature", "geometry": {"type": "Point", "coordinates": [-93.599635, 41.58382]}, "properties": {"name": "Climate-controlled self-storage, 503 SE 12th Street", "developer": "Des Moines Climate Controlled Self Storage, LLC", "type": "Other", "address": "503 SE 12th Street", "tif_npv": 1200000, "tif_basis": "NPV (corrected from cash)", "cost": 15500000, "tif_pct": 7.7, "net_gain": 2480212, "assessed": 0, "rebate_pd": null, "status": "approved", "nbhd": "Historic East Village", "ur_area": "Metro Center Urban Renewal Area", "action_dt": "2023-03-06", "source_url": "https://councildocs.dsm.city/communications/2023/23-120.pdf"}}, {"type": "Feature", "geometry": {"type": "Point", "coordinates": [-93.615131, 41.58905]}, "properties": {"name": "148 East Locust Street mixed-use (Phase 3)", "developer": "101 East Grand Parking, LLC (Paul Hayes, Tim Rypma, Jim Cownie)", "type": "Mixed-use", "address": "148 East Locust Street", "tif_npv": null, "tif_basis": null, "cost": null, "tif_pct": null, "net_gain": null, "assessed": 0, "rebate_pd": 845663, "status": "approved", "nbhd": "Historic East Village", "ur_area": null, "action_dt": "2023-03-06", "source_url": "https://councildocs.dsm.city/communications/2023/23-121.pdf"}}, {"type": "Feature", "geometry": {"type": "Point", "coordinates": [-93.639754, 41.587401]}, "properties": {"name": "610 16th Street 47-unit apartments", "developer": "Hoyt, LLC", "type": "Residential", "address": "610 16th Street", "tif_npv": 940000, "tif_basis": "unverified (no NPV stated in source)", "cost": 10500000, "tif_pct": 9.0, "net_gain": 4483359, "assessed": 183000, "rebate_pd": null, "status": "completed", "nbhd": "Sherman Hill", "ur_area": "DES MOINES METRO CENTER MERGED UR", "action_dt": "2023-02-06", "source_url": "https://councildocs.dsm.city/communications/2023/23-070.pdf"}}, {"type": "Feature", "geometry": {"type": "Point", "coordinates": [-93.617908, 41.576135]}, "properties": {"name": "Union at Rivers Edge 216-unit affordable apartments", "developer": "Union at Rivers Edge, LP (The Annex Group)", "type": "Residential", "address": "1600 Indianola Avenue (formerly 214 Jackson Avenue)", "tif_npv": 2900000, "tif_basis": "NPV (confirmed)", "cost": 56100000, "tif_pct": 5.2, "net_gain": 15360195, "assessed": 17408900, "rebate_pd": null, "status": "completed", "nbhd": "McKinley School/Columbus Park", "ur_area": "DES MOINES METRO CENTER MERGED UR", "action_dt": "2023-01-23", "source_url": "https://councildocs.dsm.city/communications/2023/23-046.pdf"}}, {"type": "Feature", "geometry": {"type": "Point", "coordinates": [-93.626238, 41.585782]}, "properties": {"name": "Urban Park Stairway Nodal Area at 701 Walnut Street", "developer": "Employers Mutual Casualty (EMC) Company", "type": "Office", "address": "701 Walnut Street", "tif_npv": 3500000, "tif_basis": "unverified (no NPV stated in source)", "cost": null, "tif_pct": null, "net_gain": null, "assessed": 1340000, "rebate_pd": 50000, "status": "approved", "nbhd": "Downtown Des Moines", "ur_area": "DES MOINES METRO CENTER MERGED UR", "action_dt": "2022-10-24", "source_url": "https://councildocs.dsm.city/communications/2022/22-496.pdf"}}, {"type": "Feature", "geometry": {"type": "Point", "coordinates": [-93.632578, 41.58368]}, "properties": {"name": "Nationwide/Allied Gateway Campus", "developer": "Nationwide Mutual Insurance Company", "type": "Parking", "address": "1200 Locust Street; 1200 Mulberry Street", "tif_npv": null, "tif_basis": null, "cost": null, "tif_pct": null, "net_gain": null, "assessed": 0, "rebate_pd": 21862816, "status": "approved", "nbhd": "Downtown Des Moines", "ur_area": "Metro Center Urban Renewal Area", "action_dt": "2022-09-12", "source_url": "https://councildocs.dsm.city/communications/2022/22-434.pdf"}}, {"type": "Feature", "geometry": {"type": "Point", "coordinates": [-93.609891, 41.580617]}, "properties": {"name": "303 Scott Avenue craft brewery", "developer": "ONESPEED DSM, L.L.C.", "type": "Other", "address": "303 Scott Avenue", "tif_npv": 670195, "tif_basis": "NPV (corrected from cash)", "cost": 5400000, "tif_pct": 12.4, "net_gain": 647986, "assessed": 2150000, "rebate_pd": null, "status": "completed", "nbhd": "Historic East Village", "ur_area": "DES MOINES METRO CENTER MERGED UR", "action_dt": "2022-09-12", "source_url": "https://councildocs.dsm.city/communications/2022/22-405.pdf"}}, {"type": "Feature", "geometry": {"type": "Point", "coordinates": [-93.618836, 41.576225]}, "properties": {"name": "The Union at River's Edge", "developer": "Union at River's Edge, LP (The Annex Group)", "type": "Residential", "address": "214 Jackson Avenue", "tif_npv": 2900000, "tif_basis": "NPV (corrected from cash)", "cost": 56100000, "tif_pct": 5.2, "net_gain": 15360195, "assessed": 0, "rebate_pd": null, "status": "completed", "nbhd": "McKinley School/Columbus Park", "ur_area": "Metro Center Urban Renewal Area", "action_dt": "2022-08-08", "source_url": "https://councildocs.dsm.city/communications/2022/22-357.pdf"}}, {"type": "Feature", "geometry": {"type": "Point", "coordinates": [-93.589811, 41.52406]}, "properties": {"name": "Exodus distribution & light assembly warehouse", "developer": "Exodus Group Investments, LLC", "type": "Industrial / warehouse", "address": "1717 East Army Post Road", "tif_npv": 5724899, "tif_basis": "NPV (corrected from cash)", "cost": 25989600, "tif_pct": 22.0, "net_gain": 31530291, "assessed": 56120, "rebate_pd": null, "status": "approved", "nbhd": "Easter Lake Area", "ur_area": "East Army Post Road Urban Renewal Area", "action_dt": "2022-07-18", "source_url": "https://councildocs.dsm.city/communications/2022/22-350.pdf"}}, {"type": "Feature", "geometry": {"type": "Point", "coordinates": [-93.623151, 41.628045]}, "properties": {"name": "413 Euclid Avenue (French Way Cleaners building)", "developer": "Euclid Foresight LLC", "type": "TIF district / UR plan", "address": "413 Euclid Avenue", "tif_npv": 540000, "tif_basis": "NPV (confirmed)", "cost": 4200000, "tif_pct": 12.9, "net_gain": 1246907, "assessed": 221600, "rebate_pd": null, "status": "completed", "nbhd": "Highland Park/Oak Park", "ur_area": "DES MOINES OAK PARK-HIGHLAND PARK UR", "action_dt": "2022-06-13", "source_url": "https://councildocs.dsm.city/communications/2022/22-274.pdf"}}, {"type": "Feature", "geometry": {"type": "Point", "coordinates": [-93.609146, 41.589133]}, "properties": {"name": "317 East 6th Street mixed-use apartments", "developer": "HOA EVMF, LLC", "type": "Mixed-use", "address": "317 East 6th Street", "tif_npv": 2300000, "tif_basis": "unverified (no NPV stated in source)", "cost": 21260000, "tif_pct": 10.8, "net_gain": 9188704, "assessed": 24000000, "rebate_pd": null, "status": "completed", "nbhd": "Historic East Village", "ur_area": "DES MOINES METRO CENTER MERGED UR", "action_dt": "2022-06-13", "source_url": "https://councildocs.dsm.city/communications/2022/22-275.pdf"}}, {"type": "Feature", "geometry": {"type": "Point", "coordinates": [-93.618574, 41.581776]}, "properties": {"name": "Ballyard Lofts", "developer": "Ballyard Lofts; MCP Subsidiary #2, LLC", "type": "Residential", "address": "350 SW 2nd Street", "tif_npv": null, "tif_basis": null, "cost": null, "tif_pct": null, "net_gain": null, "assessed": 6860000, "rebate_pd": null, "status": "approved", "nbhd": "Downtown Des Moines", "ur_area": "DES MOINES METRO CENTER MERGED UR", "action_dt": "2022-04-18", "source_url": "https://councildocs.dsm.city/agendas/ag20220418.pdf"}}, {"type": "Feature", "geometry": {"type": "Point", "coordinates": [-93.551278, 41.575326]}, "properties": {"name": "Industrial precast production plant expansion", "developer": "NMDP Holdings, LLC (Adam Petersen, President)", "type": "Industrial / warehouse", "address": "3312 East Granger Avenue", "tif_npv": 275000, "tif_basis": "unverified (no NPV stated in source)", "cost": 4250000, "tif_pct": 6.5, "net_gain": 3044986, "assessed": 8410000, "rebate_pd": 2589517, "status": "approved", "nbhd": null, "ur_area": "DES MOINES SE AGRI BUSINESS PARK UR", "action_dt": "2022-03-07", "source_url": "https://councildocs.dsm.city/communications/2022/22-106.pdf"}}, {"type": "Feature", "geometry": {"type": "Point", "coordinates": [-93.63558, 41.58385]}, "properties": {"name": "1417 Walnut Street mixed-use (renovation)", "developer": "Bronson Partners, LLC (Tim Rypma)", "type": "Mixed-use", "address": "1417 Walnut Street", "tif_npv": null, "tif_basis": null, "cost": null, "tif_pct": null, "net_gain": null, "assessed": 3890600, "rebate_pd": 150710, "status": "approved", "nbhd": "Downtown Des Moines", "ur_area": "DES MOINES METRO CENTER MERGED UR", "action_dt": "2022-03-07", "source_url": "https://councildocs.dsm.city/communications/2022/22-080.pdf"}}, {"type": "Feature", "geometry": {"type": "Point", "coordinates": [-93.602503, 41.522115]}, "properties": {"name": "Southridge Mall Genesis Health Club and Multi-Sports Facility", "developer": "Macerich Southridge Mall, LLC and The Macerich Partnership, LP; Genesis Health Clubs Sports Complex S.E. LLC (Rodney Steven II)", "type": "Retail / restaurant", "address": "1111 East Army Post Road", "tif_npv": 9600000, "tif_basis": "NPV (confirmed)", "cost": 16500000, "tif_pct": 58.2, "net_gain": 618886, "assessed": 11510000, "rebate_pd": 2659064, "status": "approved", "nbhd": null, "ur_area": "DES MOINES SOUTHSIDE ECONOMIC DEVELOPMENT UR", "action_dt": "2021-12-20", "source_url": "https://councildocs.dsm.city/communications/2021/21-562.pdf"}}, {"type": "Feature", "geometry": {"type": "Point", "coordinates": [-93.627345, 41.580484]}, "properties": {"name": "Landus headquarters and innovation center relocation", "developer": "Landus Cooperative", "type": "Office", "address": "220 SW 9th Street", "tif_npv": null, "tif_basis": null, "cost": null, "tif_pct": null, "net_gain": null, "assessed": 13900000, "rebate_pd": 50000, "status": "approved", "nbhd": "Downtown Des Moines", "ur_area": "DES MOINES METRO CENTER MERGED UR", "action_dt": "2021-12-20", "source_url": "https://councildocs.dsm.city/communications/2021/21-575.pdf"}}, {"type": "Feature", "geometry": {"type": "Point", "coordinates": [-93.700454, 41.542841]}, "properties": {"name": "Waldinger Corporation headquarters", "developer": "Bell Avenue Properties, Inc. (Thomas Koehn, President)", "type": "Office", "address": "6200 Scout Trail", "tif_npv": null, "tif_basis": null, "cost": null, "tif_pct": null, "net_gain": null, "assessed": 25200000, "rebate_pd": 40000, "status": "approved", "nbhd": "Southwestern Hills", "ur_area": "DES MOINES SOUTHWEST GATEWAY UR", "action_dt": "2021-08-23", "source_url": "https://councildocs.dsm.city/communications/2021/21-373.pdf"}}, {"type": "Feature", "geometry": {"type": "Point", "coordinates": [-93.626172, 41.601898]}, "properties": {"name": "Sixth Avenue Flats (42-unit multi-family)", "developer": "Urban Campus Apartments L.L.L.P. (Jack Hatch, Michael Kiernan)", "type": "Residential", "address": "1230 6th Avenue", "tif_npv": null, "tif_basis": null, "cost": 9200000, "tif_pct": null, "net_gain": 1044490, "assessed": 776800, "rebate_pd": 164000, "status": "approved", "nbhd": "River Bend", "ur_area": "DES MOINES METRO CENTER MERGED UR", "action_dt": "2021-06-28", "source_url": "https://councildocs.dsm.city/communications/2021/21-285.pdf"}}, {"type": "Feature", "geometry": {"type": "Point", "coordinates": [-93.626125, 41.580911]}, "properties": {"name": "215 SW 9th (5-story, 66-unit multi-family)", "developer": "SW9 215, LLC (Kris Saddoris, Hubbell Realty Company)", "type": "Residential", "address": "215 SW 9th Street", "tif_npv": 1100000, "tif_basis": "NPV (corrected from cash)", "cost": 12960000, "tif_pct": 8.5, "net_gain": 7220226, "assessed": 0, "rebate_pd": null, "status": "approved", "nbhd": "Downtown Des Moines", "ur_area": "Metro Center Urban Renewal Area", "action_dt": "2021-06-28", "source_url": "https://councildocs.dsm.city/communications/2021/21-304.pdf"}}, {"type": "Feature", "geometry": {"type": "Point", "coordinates": [-93.641721, 41.591023]}, "properties": {"name": "Concord Project", "developer": "DEV Partners c/o HOM Investments 6, LLC", "type": "Residential", "address": "732 and 740 18th Street", "tif_npv": null, "tif_basis": null, "cost": 1500000, "tif_pct": null, "net_gain": null, "assessed": 1090000, "rebate_pd": null, "status": "approved", "nbhd": "Sherman Hill", "ur_area": null, "action_dt": "2021-06-28", "source_url": "https://councildocs.dsm.city/communications/2021/21-306.pdf"}}, {"type": "Feature", "geometry": {"type": "Point", "coordinates": [-93.64126, 41.542006]}, "properties": {"name": "Percy's Landing (senior housing conversion of former Percy Hoak Elementary)", "developer": "McKinley Manor, LLC (d/b/a Percy's Landing Senior, LP; JB Conlin, Conlin Properties)", "type": "Residential", "address": "1801 McKinley Avenue", "tif_npv": 377588, "tif_basis": "NPV (corrected from cash)", "cost": 4500000, "tif_pct": 8.4, "net_gain": 717339, "assessed": 532100, "rebate_pd": null, "status": "approved", "nbhd": "Watrous South", "ur_area": "DES MOINES FLEUR DRIVE COMMERCIAL UR", "action_dt": "2021-04-05", "source_url": "https://councildocs.dsm.city/communications/2021/21-167.pdf"}}, {"type": "Feature", "geometry": {"type": "Point", "coordinates": [-93.624443, 41.627464]}, "properties": {"name": "Commercial renovation of 3523 6th Avenue (former Euclid Avenue State Bank)", "developer": "3523 6th Avenue, LLC (Joe Cordaro, Randy Reichardt)", "type": "Mixed-use", "address": "3523 6th Avenue", "tif_npv": 347170, "tif_basis": "NPV (corrected from cash)", "cost": 1760000, "tif_pct": 19.7, "net_gain": 1249378, "assessed": 1106000, "rebate_pd": 161018, "status": "completed", "nbhd": "Highland Park/Oak Park", "ur_area": "DES MOINES OAK PARK-HIGHLAND PARK UR", "action_dt": "2021-03-08", "source_url": "https://councildocs.dsm.city/communications/2021/21-119.pdf"}}, {"type": "Feature", "geometry": {"type": "Point", "coordinates": [-93.648583, 41.585025]}, "properties": {"name": "Historic renovation of three apartment buildings at 2315 Grand Avenue", "developer": "Tree House Partners, LLC (Tim Rypma, Paul Cownie, Jeremy Cortright)", "type": "Residential", "address": "2315 Grand Avenue", "tif_npv": 200000, "tif_basis": "NPV (corrected from cash)", "cost": 16900000, "tif_pct": 1.2, "net_gain": 3842906, "assessed": 6450000, "rebate_pd": null, "status": "completed", "nbhd": "Woodland Heights", "ur_area": "DES MOINES INGERSOLL-GRAND COMMERCIAL UR", "action_dt": "2021-02-22", "source_url": "https://councildocs.dsm.city/communications/2021/21-086.pdf"}}, {"type": "Feature", "geometry": {"type": "Point", "coordinates": [-93.667543, 41.585075]}, "properties": {"name": "New 56-unit multi-residential apartment building", "developer": "3801 Grand Associates, L.P. (owner) and Newbury Management Company d/b/a Newbury Living (Frank Levy, President)", "type": "Residential", "address": "3705-3707 Grand Avenue", "tif_npv": 3300000, "tif_basis": "NPV (corrected from cash)", "cost": 33500000, "tif_pct": 9.9, "net_gain": 12580571, "assessed": 17300000, "rebate_pd": null, "status": "approved", "nbhd": "North of Grand", "ur_area": "DES MOINES 38TH AND GRAND UR", "action_dt": "2021-02-08", "source_url": "https://councildocs.dsm.city/communications/2021/21-059.pdf"}}, {"type": "Feature", "geometry": {"type": "Point", "coordinates": [-93.625142, 41.627999]}, "properties": {"name": "Renovation of 3610 6th Avenue into mixed-use residential and commercial (home to Chuck's Restaurant)", "developer": "FW Rehab, LLC (Abbey Gilroy, Executive Director)", "type": "Mixed-use", "address": "3610 6th Avenue", "tif_npv": 113915, "tif_basis": "NPV (corrected from cash)", "cost": 1240000, "tif_pct": 9.2, "net_gain": 600528, "assessed": 1036000, "rebate_pd": 4221, "status": "completed", "nbhd": "Highland Park/Oak Park", "ur_area": "DES MOINES OAK PARK-HIGHLAND PARK UR", "action_dt": "2021-01-25", "source_url": "https://councildocs.dsm.city/communications/2021/21-044.pdf"}}, {"type": "Feature", "geometry": {"type": "Point", "coordinates": [-93.632671, 41.583517]}, "properties": {"name": "Historic renovation of 213 13th Street and new 5-story mixed-use building (two phases)", "developer": "13th & Mulberry, LLC and 13th and Mulberry Multifamily, LLC (Josh Aberson, Byron Schafersman, Tim Rypma)", "type": "Mixed-use", "address": "213 13th Street and adjacent lot northwest of 13th and Mulberry", "tif_npv": 3600000, "tif_basis": "NPV (confirmed)", "cost": 22700000, "tif_pct": 15.9, "net_gain": 8933928, "assessed": 3957000, "rebate_pd": null, "status": "completed", "nbhd": "Downtown Des Moines", "ur_area": "DES MOINES METRO CENTER MERGED UR", "action_dt": "2020-12-21", "source_url": "https://councildocs.dsm.city/communications/2020/20-564.pdf"}}, {"type": "Feature", "geometry": {"type": "Point", "coordinates": [-93.614174, 41.587286]}, "properties": {"name": "Renovation of 217 East 2nd Street (Globe Hoist building) for commercial and office uses", "developer": "217 E Second LC (Jake Christensen, Christensen Development)", "type": "Office", "address": "217 East 2nd Street", "tif_npv": 1075000, "tif_basis": "NPV (corrected from cash)", "cost": 8600000, "tif_pct": 12.5, "net_gain": 4579666, "assessed": 3890000, "rebate_pd": null, "status": "approved", "nbhd": "Historic East Village", "ur_area": "DES MOINES METRO CENTER MERGED UR", "action_dt": "2020-12-21", "source_url": "https://councildocs.dsm.city/communications/2020/20-563.pdf"}}, {"type": "Feature", "geometry": {"type": "Point", "coordinates": [-93.654231, 41.585067]}, "properties": {"name": "Renovation of 515 28th Street commercial building (Iowa Lithographing Company building)", "developer": "Spot 515, LLC (Randy Reichardt, Owner)", "type": "Other", "address": "515 28th Street", "tif_npv": 634000, "tif_basis": "NPV (corrected from cash)", "cost": 2300000, "tif_pct": 27.6, "net_gain": 2246610, "assessed": 2410000, "rebate_pd": 58997, "status": "completed", "nbhd": null, "ur_area": "DES MOINES INGERSOLL-GRAND COMMERCIAL UR", "action_dt": "2020-12-21", "source_url": "https://councildocs.dsm.city/communications/2020/20-565.pdf"}}, {"type": "Feature", "geometry": {"type": "Point", "coordinates": [-93.676332, 41.516299]}, "properties": {"name": "EP2 60,000 sq-ft warehouse addition to existing production facility", "developer": "Electro Management Corp. and Electrical Power Products, Inc. (d/b/a EP2, Britt Baker, CEO)", "type": "Industrial / warehouse", "address": "4240 Army Post Road", "tif_npv": 1016267, "tif_basis": "NPV (confirmed)", "cost": 5900000, "tif_pct": 17.2, "net_gain": 1149471, "assessed": 29139890, "rebate_pd": 2442605, "status": "approved", "nbhd": null, "ur_area": "DES MOINES SW 42ND & ARMY POST UR", "action_dt": "2020-11-23", "source_url": "https://councildocs.dsm.city/communications/2020/20-506.pdf"}}, {"type": "Feature", "geometry": {"type": "Point", "coordinates": [-93.64126, 41.542006]}, "properties": {"name": "Percy's Landing - 21-unit senior housing (former Percy Hoak Elementary School)", "developer": "Percy's Landing Senior, LP (J.B. Conlin, Conlin Properties)", "type": "Residential", "address": "1801 McKinley Avenue", "tif_npv": 402802, "tif_basis": "NPV (corrected from cash)", "cost": 4500000, "tif_pct": 9.0, "net_gain": 554125, "assessed": 532100, "rebate_pd": null, "status": "approved", "nbhd": "Watrous South", "ur_area": "DES MOINES FLEUR DRIVE COMMERCIAL UR", "action_dt": "2020-11-23", "source_url": "https://councildocs.dsm.city/communications/2020/20-507.pdf"}}, {"type": "Feature", "geometry": {"type": "Point", "coordinates": [-93.613337, 41.588467]}, "properties": {"name": "Element Hotel by Marriott (6-story, 112-room)", "developer": "Swaps Cash, LLC (Lincoln and Lisa McIlravy, Members)", "type": "Hotel", "address": "304 East Walnut Street", "tif_npv": 2000000, "tif_basis": "NPV (confirmed)", "cost": 22700000, "tif_pct": 8.8, "net_gain": 13154633, "assessed": 987100, "rebate_pd": null, "status": "approved", "nbhd": "Historic East Village", "ur_area": "DES MOINES METRO CENTER MERGED UR", "action_dt": "2020-09-14", "source_url": "https://councildocs.dsm.city/communications/2020/20-409.pdf"}}, {"type": "Feature", "geometry": {"type": "Point", "coordinates": [-93.632471, 41.593213]}, "properties": {"name": "Ferrington Place Building historic renovation (mixed-use)", "developer": "Aust Real Estate, LLC (Matt and Mindy Aust, Owners)", "type": "Mixed-use", "address": "1201 Keosauqua Way", "tif_npv": 521159, "tif_basis": "NPV (corrected from cash)", "cost": 6100000, "tif_pct": 8.5, "net_gain": 1977561, "assessed": 2350000, "rebate_pd": null, "status": "completed", "nbhd": null, "ur_area": "DES MOINES METRO CENTER MERGED UR", "action_dt": "2020-09-14", "source_url": "https://councildocs.dsm.city/communications/2020/20-388.pdf"}}, {"type": "Feature", "geometry": {"type": "Point", "coordinates": [-93.655116, 41.58471]}, "properties": {"name": "historic renovation of three multi-family apartment buildings", "developer": "Reagan Partners, LLC (Tim Rypma, Paul Cownie and Jeremy Cortright)", "type": "Residential", "address": "2801 Grand Avenue", "tif_npv": 994627, "tif_basis": "NPV (corrected from cash)", "cost": 8300000, "tif_pct": 12.0, "net_gain": 1482071, "assessed": 3590000, "rebate_pd": 50000, "status": "completed", "nbhd": null, "ur_area": "DES MOINES INGERSOLL-GRAND COMMERCIAL UR", "action_dt": "2020-08-05", "source_url": "https://councildocs.dsm.city/minutes/as20200805.pdf"}}, {"type": "Feature", "geometry": {"type": "Point", "coordinates": [-93.668221, 41.583972]}, "properties": {"name": "3750 Grand condominiums", "developer": "3750 Grand, LLC", "type": "Residential", "address": "3750 Grand Avenue", "tif_npv": 4800000, "tif_basis": "NPV (confirmed)", "cost": 37400000, "tif_pct": 12.8, "net_gain": 25868159, "assessed": 45700, "rebate_pd": 707243, "status": "completed", "nbhd": "Salisbury Oaks", "ur_area": "38th and Grand Urban Renewal Area - TIF District #1", "action_dt": "2020-02-24", "source_url": "https://councildocs.dsm.city/communications/2020/20-099.pdf"}}, {"type": "Feature", "geometry": {"type": "Point", "coordinates": [-93.624114, 41.590062]}, "properties": {"name": "611 Fifth Avenue office building renovation", "developer": "611 Fifth Avenue, LLC", "type": "Office", "address": "611 5th Avenue", "tif_npv": 3800000, "tif_basis": "NPV (as extracted; CC NPV differs)", "cost": 23300000, "tif_pct": 16.3, "net_gain": 9067925, "assessed": 8820000, "rebate_pd": 161018, "status": "completed", "nbhd": "Downtown Des Moines", "ur_area": "DES MOINES METRO CENTER MERGED UR", "action_dt": "2020-02-24", "source_url": "https://councildocs.dsm.city/communications/2020/20-073.pdf"}}, {"type": "Feature", "geometry": {"type": "Point", "coordinates": [-93.635972, 41.586123]}, "properties": {"name": "Krause Group / Kum & Go corporate headquarters", "developer": "Krause Group, LTD. f/k/a Krause Holdings, Inc. and Linden Street Investments, LLC (Kyle Krause)", "type": "Office", "address": "1459 Grand Avenue", "tif_npv": null, "tif_basis": null, "cost": null, "tif_pct": null, "net_gain": null, "assessed": 81900000, "rebate_pd": 8866285, "status": "completed", "nbhd": "Downtown Des Moines", "ur_area": "DES MOINES METRO CENTER MERGED UR", "action_dt": "2019-12-16", "source_url": "https://councildocs.dsm.city/communications/2019/19-534.pdf"}}, {"type": "Feature", "geometry": {"type": "Point", "coordinates": [-93.651732, 41.584858]}, "properties": {"name": "Terrace Hill - 87-room hotel redevelopment", "developer": "Terrace Hill I, LLC (Jake Christensen)", "type": "Hotel", "address": "2525 Grand Avenue and 2515 Grand Avenue", "tif_npv": 2500000, "tif_basis": "NPV (as extracted; CC NPV differs)", "cost": 18200000, "tif_pct": 13.7, "net_gain": 8233046, "assessed": 2850000, "rebate_pd": null, "status": "approved", "nbhd": null, "ur_area": "DES MOINES INGERSOLL-GRAND COMMERCIAL UR", "action_dt": "2019-12-16", "source_url": "https://councildocs.dsm.city/communications/2019/19-546.pdf"}}, {"type": "Feature", "geometry": {"type": "Point", "coordinates": [-93.606789, 41.583386]}, "properties": {"name": "Connolly Lofts", "developer": "Connolly Lofts Associates, L.P. (Frank Levy, Managing Member)", "type": "Residential", "address": "401 SE 6th Street and 400 SE 7th Street", "tif_npv": 432161, "tif_basis": "NPV (corrected from cash)", "cost": 11800000, "tif_pct": 3.7, "net_gain": 3068523, "assessed": 9000000, "rebate_pd": 1984051, "status": "completed", "nbhd": "Historic East Village", "ur_area": "DES MOINES METRO CENTER MERGED UR", "action_dt": "2019-11-18", "source_url": "https://councildocs.dsm.city/communications/2019/19-496.pdf"}}, {"type": "Feature", "geometry": {"type": "Point", "coordinates": [-93.640874, 41.584774]}, "properties": {"name": "Argonne Apartments Building historic renovation", "developer": "Jarcor, LLC (Benchmark Real Estate Group; Joe Cordaro)", "type": "Residential", "address": "1723 Grand Avenue", "tif_npv": 984000, "tif_basis": "NPV (confirmed)", "cost": 7700000, "tif_pct": 12.8, "net_gain": 2219331, "assessed": 7887000, "rebate_pd": null, "status": "completed", "nbhd": "Downtown Des Moines", "ur_area": "DES MOINES METRO CENTER MERGED UR", "action_dt": "2019-05-20", "source_url": "https://councildocs.dsm.city/communications/2019/19-216.pdf"}}, {"type": "Feature", "geometry": {"type": "Point", "coordinates": [-93.546705, 41.571095]}, "properties": {"name": "PDM Precast steel fabrication plant expansion", "developer": "PDM Precast, Inc.", "type": "Other", "address": "3500 Vandalia Road", "tif_npv": null, "tif_basis": null, "cost": null, "tif_pct": null, "net_gain": null, "assessed": 0, "rebate_pd": 2589517, "status": "approved", "nbhd": null, "ur_area": null, "action_dt": "2019-01-28", "source_url": "https://councildocs.dsm.city/communications/2019/19-032.pdf"}}, {"type": "Feature", "geometry": {"type": "Point", "coordinates": [-93.625927, 41.586375]}, "properties": {"name": "Griffin Building historic renovation (mixed-use)", "developer": "Des Moines Griffin Building, LLC", "type": "Mixed-use", "address": "319 7th Street", "tif_npv": 1600000, "tif_basis": "NPV (confirmed)", "cost": 12400000, "tif_pct": 12.9, "net_gain": 3081426, "assessed": 6720000, "rebate_pd": null, "status": "completed", "nbhd": "Downtown Des Moines", "ur_area": "DES MOINES METRO CENTER MERGED UR", "action_dt": "2018-09-10", "source_url": "https://councildocs.dsm.city/communications/2018/18-441.pdf"}}, {"type": "Feature", "geometry": {"type": "Point", "coordinates": [-93.626682, 41.603599]}, "properties": {"name": "Four-unit scattered-site housing rehabilitation", "developer": "Indigo Dawn, LLC", "type": "Residential", "address": "1124 13th Street, 1311 Laurel Street, and 1345 7th Street", "tif_npv": null, "tif_basis": null, "cost": 1060000, "tif_pct": null, "net_gain": null, "assessed": 305400, "rebate_pd": null, "status": "approved", "nbhd": "River Bend", "ur_area": null, "action_dt": "2018-07-23", "source_url": "https://councildocs.dsm.city/communications/2018/18-393.pdf"}}, {"type": "Feature", "geometry": {"type": "Point", "coordinates": [-93.612808, 41.590703]}, "properties": {"name": "418 E. Grand Avenue mixed-use development and parking structure", "developer": "Nelson Development 1, LLC", "type": "Mixed-use", "address": "418 East Grand Avenue", "tif_npv": null, "tif_basis": null, "cost": 35800000, "tif_pct": null, "net_gain": null, "assessed": 4580000, "rebate_pd": 223091, "status": "completed", "nbhd": "Historic East Village", "ur_area": "DES MOINES METRO CENTER MERGED UR", "action_dt": "2018-07-23", "source_url": "https://councildocs.dsm.city/communications/2018/18-379.pdf"}}, {"type": "Feature", "geometry": {"type": "Point", "coordinates": [-93.650069, 41.59273]}, "properties": {"name": "832 24th Street single-family home", "developer": "Jeffrey Stewart", "type": "Other", "address": "832 24th Street", "tif_npv": null, "tif_basis": null, "cost": null, "tif_pct": null, "net_gain": null, "assessed": 375900, "rebate_pd": null, "status": "approved", "nbhd": "Woodland Heights", "ur_area": null, "action_dt": "2018-07-09", "source_url": "https://councildocs.dsm.city/communications/2018/18-347.pdf"}}, {"type": "Feature", "geometry": {"type": "Point", "coordinates": [-93.61345, 41.603298]}, "properties": {"name": "1300-1350 Vermont Street high-cube warehouse", "developer": "KOK Vermont Street, LLC", "type": "Industrial / warehouse", "address": "1300-1350 Vermont Street", "tif_npv": null, "tif_basis": null, "cost": 13900000, "tif_pct": null, "net_gain": null, "assessed": 149000, "rebate_pd": null, "status": "completed", "nbhd": "River Bend", "ur_area": "DES MOINES CENTRAL PLACE INDUSTRIAL PARK UR", "action_dt": "2018-05-21", "source_url": "https://councildocs.dsm.city/communications/2018/18-257.pdf"}}, {"type": "Feature", "geometry": {"type": "Point", "coordinates": [-93.620876, 41.593761]}, "properties": {"name": "207 Crocker hotel (Fairfield Inn and Suites by Marriott)", "developer": "207 Crocker, LLC", "type": "Hotel", "address": "207 Crocker Street", "tif_npv": 1200000, "tif_basis": "NPV (corrected from cash)", "cost": 10800000, "tif_pct": 11.1, "net_gain": null, "assessed": 10700000, "rebate_pd": 512208, "status": "completed", "nbhd": null, "ur_area": "DES MOINES METRO CENTER MERGED UR", "action_dt": "2018-05-21", "source_url": "https://councildocs.dsm.city/communications/2018/18-258.pdf"}}, {"type": "Feature", "geometry": {"type": "Point", "coordinates": [-93.580722, 41.582063]}, "properties": {"name": "Kemin World-wide Campus expansion", "developer": "Kemin Industries, Inc. and Kemin Holdings, L.C.", "type": "Other", "address": "vicinity of 1900 Scott Avenue and 2100 Maury Street", "tif_npv": null, "tif_basis": null, "cost": null, "tif_pct": null, "net_gain": null, "assessed": 18900000, "rebate_pd": null, "status": "approved", "nbhd": null, "ur_area": "DES MOINES SE AGRI BUSINESS PARK UR", "action_dt": "2018-05-07", "source_url": "https://councildocs.dsm.city/communications/2018/18-237.pdf"}}, {"type": "Feature", "geometry": {"type": "Point", "coordinates": [-93.626125, 41.580911]}, "properties": {"name": "Parkway Lofts", "developer": "Orton Development Company, LLC", "type": "Residential", "address": "215 SW 9th Street", "tif_npv": null, "tif_basis": null, "cost": 13500000, "tif_pct": null, "net_gain": null, "assessed": 0, "rebate_pd": null, "status": "approved", "nbhd": "Downtown Des Moines", "ur_area": null, "action_dt": "2018-04-23", "source_url": "https://councildocs.dsm.city/communications/2018/18-215.pdf"}}, {"type": "Feature", "geometry": {"type": "Point", "coordinates": [-93.611929, 41.590901]}, "properties": {"name": "440 E. Grand Avenue historic renovation (mixed-use)", "developer": "RE3, LLC", "type": "Mixed-use", "address": "440 E. Grand Avenue", "tif_npv": null, "tif_basis": null, "cost": null, "tif_pct": null, "net_gain": null, "assessed": 1508000, "rebate_pd": 91861, "status": "completed", "nbhd": "Historic East Village", "ur_area": "DES MOINES METRO CENTER MERGED UR", "action_dt": "2018-04-23", "source_url": "https://councildocs.dsm.city/minutes/as20180423.pdf"}}, {"type": "Feature", "geometry": {"type": "Point", "coordinates": [-93.624767, 41.58519]}, "properties": {"name": "Midland Building", "developer": "206 6th Avenue, LLC", "type": "Hotel", "address": "206 6th Avenue", "tif_npv": 4000000, "tif_basis": "unverified (no NPV stated in source)", "cost": 39700000, "tif_pct": 10.1, "net_gain": null, "assessed": 8700000, "rebate_pd": 161018, "status": "completed", "nbhd": "Downtown Des Moines", "ur_area": "DES MOINES METRO CENTER MERGED UR", "action_dt": "2018-03-08", "source_url": "https://councildocs.dsm.city/communications/2018/18-097.pdf"}}, {"type": "Feature", "geometry": {"type": "Point", "coordinates": [-93.652588, 41.597402]}, "properties": {"name": "DSMBLC Holdings, Inc.", "developer": "DSMBLC Holdings, Inc.", "type": "Residential", "address": "1074 26th Street", "tif_npv": null, "tif_basis": null, "cost": null, "tif_pct": null, "net_gain": null, "assessed": 429500, "rebate_pd": null, "status": "approved", "nbhd": "Drake", "ur_area": null, "action_dt": "2017-11-20", "source_url": "https://councildocs.dsm.city/communications/2017/17-784.pdf"}}, {"type": "Feature", "geometry": {"type": "Point", "coordinates": [-93.647859, 41.600396]}, "properties": {"name": "Neighborhood Development Corporation (NDC)", "developer": "Neighborhood Development Corporation (NDC)", "type": "Residential", "address": "2217-2225 University Avenue", "tif_npv": null, "tif_basis": null, "cost": 2600000, "tif_pct": null, "net_gain": null, "assessed": 3130000, "rebate_pd": null, "status": "approved", "nbhd": "Drake", "ur_area": null, "action_dt": "2017-11-06", "source_url": "https://councildocs.dsm.city/communications/2017/17-771.pdf"}}, {"type": "Feature", "geometry": {"type": "Point", "coordinates": [-93.621586, 41.585825]}, "properties": {"name": "Elliott Apartments", "developer": "Elliott Coop Housing Association", "type": "Residential", "address": "217 4th Street", "tif_npv": null, "tif_basis": null, "cost": 8200000, "tif_pct": null, "net_gain": null, "assessed": 3650000, "rebate_pd": null, "status": "approved", "nbhd": "Downtown Des Moines", "ur_area": "DES MOINES METRO CENTER MERGED UR", "action_dt": "2017-10-09", "source_url": "https://councildocs.dsm.city/communications/2017/17-720.pdf"}}, {"type": "Feature", "geometry": {"type": "Point", "coordinates": [-93.626643, 41.576468]}, "properties": {"name": "Cityville on 9th", "developer": "Hubbell Realty Company, Hubbell Terminal Corporation, and 510 SW 9th Street, LLC (Rick Tollakson)", "type": "Residential", "address": "550 SW 9th Street", "tif_npv": null, "tif_basis": null, "cost": 50000000, "tif_pct": null, "net_gain": null, "assessed": 5227000, "rebate_pd": 266000, "status": "approved", "nbhd": "Downtown Des Moines", "ur_area": "DES MOINES METRO CENTER MERGED UR", "action_dt": "2017-09-11", "source_url": "https://councildocs.dsm.city/communications/2017/17-645.pdf"}}, {"type": "Feature", "geometry": {"type": "Point", "coordinates": [-93.607379, 41.585099]}, "properties": {"name": "District at 6th", "developer": "TWG Development, LLC d/b/a District at 6th, LLC", "type": "Residential", "address": "201 SE 6th Street", "tif_npv": 3500000, "tif_basis": "unverified (no NPV stated in source)", "cost": 40600000, "tif_pct": 8.6, "net_gain": null, "assessed": 39600000, "rebate_pd": 1050000, "status": "completed", "nbhd": "Historic East Village", "ur_area": "DES MOINES METRO CENTER MERGED UR", "action_dt": "2017-08-14", "source_url": "https://councildocs.dsm.city/communications/2017/17-575.pdf"}}, {"type": "Feature", "geometry": {"type": "Point", "coordinates": [-93.626771, 41.585673]}, "properties": {"name": "Wilkins Building (former Younkers)", "developer": "Wilkins Redevelopment, LLC", "type": "Residential", "address": "713 Walnut Street", "tif_npv": 3200000, "tif_basis": "unverified (no NPV stated in source)", "cost": 27000000, "tif_pct": 11.9, "net_gain": null, "assessed": 19125200, "rebate_pd": 1637532, "status": "completed", "nbhd": "Downtown Des Moines", "ur_area": "DES MOINES METRO CENTER MERGED UR", "action_dt": "2017-05-22", "source_url": "https://councildocs.dsm.city/communications/2017/17-453.pdf"}}, {"type": "Feature", "geometry": {"type": "Point", "coordinates": [-93.629152, 41.585639]}, "properties": {"name": "FHLB headquarters relocation and expansion", "developer": "Federal Home Loan Bank of Des Moines", "type": "Office", "address": "909 and 912 Locust Street", "tif_npv": null, "tif_basis": null, "cost": null, "tif_pct": null, "net_gain": null, "assessed": 2440100, "rebate_pd": 1107048, "status": "completed", "nbhd": "Downtown Des Moines", "ur_area": "DES MOINES METRO CENTER MERGED UR", "action_dt": "2017-04-17", "source_url": "https://councildocs.dsm.city/communications/2017/17-380.pdf"}}, {"type": "Feature", "geometry": {"type": "Point", "coordinates": [-93.622624, 41.585299]}, "properties": {"name": "Fifth and Walnut Parking Garage redevelopment (hotel/residential tower)", "developer": "Blackbird Investments, LLC", "type": "Parking", "address": "422 Walnut Street", "tif_npv": null, "tif_basis": null, "cost": null, "tif_pct": null, "net_gain": null, "assessed": 1511000, "rebate_pd": null, "status": "approved", "nbhd": "Downtown Des Moines", "ur_area": "DES MOINES METRO CENTER MERGED UR", "action_dt": "2017-04-03", "source_url": "https://councildocs.dsm.city/communications/2017/17-346.pdf"}}, {"type": "Feature", "geometry": {"type": "Point", "coordinates": [-93.625251, 41.589186]}, "properties": {"name": "Carbon 550 (50-unit apartment project)", "developer": "Hubbell Realty Company", "type": "Residential", "address": "550 Watson Powell Jr. Way", "tif_npv": null, "tif_basis": null, "cost": 8600000, "tif_pct": null, "net_gain": null, "assessed": 8140000, "rebate_pd": 500000, "status": "approved", "nbhd": "Downtown Des Moines", "ur_area": "DES MOINES METRO CENTER MERGED UR", "action_dt": "2016-12-19", "source_url": "https://councildocs.dsm.city/communications/2016/16-723.pdf"}}, {"type": "Feature", "geometry": {"type": "Point", "coordinates": [-93.626238, 41.585782]}, "properties": {"name": "701 Walnut Street tower (east side of former Younkers site)", "developer": "701 Walnut Partnership, LLC", "type": "Residential", "address": "701 Walnut Street", "tif_npv": 4273982, "tif_basis": "unverified (no NPV stated in source)", "cost": 80000000, "tif_pct": 5.3, "net_gain": null, "assessed": 1340000, "rebate_pd": null, "status": "approved", "nbhd": "Downtown Des Moines", "ur_area": "DES MOINES METRO CENTER MERGED UR", "action_dt": "2016-12-19", "source_url": "https://councildocs.dsm.city/communications/2016/16-706.pdf"}}, {"type": "Feature", "geometry": {"type": "Point", "coordinates": [-93.625927, 41.586375]}, "properties": {"name": "Edna M. Griffin Building restoration & conversion", "developer": "Revive Community Development", "type": "Residential", "address": "319 7th Street", "tif_npv": null, "tif_basis": null, "cost": 10500000, "tif_pct": null, "net_gain": null, "assessed": 6720000, "rebate_pd": null, "status": "completed", "nbhd": "Downtown Des Moines", "ur_area": "DES MOINES METRO CENTER MERGED UR", "action_dt": "2016-12-05", "source_url": "https://councildocs.dsm.city/communications/2016/16-675.pdf"}}, {"type": "Feature", "geometry": {"type": "Point", "coordinates": [-93.625251, 41.589186]}, "properties": {"name": "43-unit multi-family housing project at 550 Watson Powell Jr. Way", "developer": "HRC 6th Street, LLC", "type": "Residential", "address": "550 Watson Powell Jr. Way", "tif_npv": null, "tif_basis": null, "cost": null, "tif_pct": null, "net_gain": null, "assessed": 8140000, "rebate_pd": null, "status": "approved", "nbhd": "Downtown Des Moines", "ur_area": "DES MOINES METRO CENTER MERGED UR", "action_dt": "2016-12-05", "source_url": "https://councildocs.dsm.city/agendas/ag20161205.pdf"}}, {"type": "Feature", "geometry": {"type": "Point", "coordinates": [-93.661583, 41.604407]}, "properties": {"name": "Forest Avenue Village (50-unit multi-family)", "developer": "Neighborhood Development Corporation (NDC)", "type": "TIF district / UR plan", "address": "3201 Forest Avenue (3221, 3211, 3201 Forest Ave; 1420 & 1414 32nd St)", "tif_npv": 731319, "tif_basis": "unverified (no NPV stated in source)", "cost": 7600000, "tif_pct": 9.6, "net_gain": null, "assessed": 5050000, "rebate_pd": null, "status": "approved", "nbhd": "Drake", "ur_area": "DES MOINES FOREST AVENUE UR", "action_dt": "2016-09-12", "source_url": "https://councildocs.dsm.city/communications/2016/16-516.pdf"}}, {"type": "Feature", "geometry": {"type": "Point", "coordinates": [-93.690746, 41.557378]}, "properties": {"name": "Excell Marketing facility expansion", "developer": "Excell Marketing, L.C.", "type": "Office", "address": "5501 Park Avenue", "tif_npv": null, "tif_basis": null, "cost": 5300000, "tif_pct": null, "net_gain": null, "assessed": 11600000, "rebate_pd": null, "status": "approved", "nbhd": null, "ur_area": null, "action_dt": "2016-09-12", "source_url": "https://councildocs.dsm.city/communications/2016/16-520.pdf"}}, {"type": "Feature", "geometry": {"type": "Point", "coordinates": [-93.625732, 41.587503]}, "properties": {"name": "Liberty Building Rehabilitation & Parking Garage / Hyatt Place Hotel", "developer": "Liberty Des Moines, L.L.C. (assignee, Schulte Hospitality Group); Liberty Building Historic Rehab, LLC / 418 Hospitality, LLC (assignors)", "type": "Parking", "address": "418 6th Avenue", "tif_npv": null, "tif_basis": null, "cost": null, "tif_pct": null, "net_gain": null, "assessed": 2415000, "rebate_pd": 616084, "status": "approved", "nbhd": "Downtown Des Moines", "ur_area": "DES MOINES METRO CENTER MERGED UR", "action_dt": "2016-09-12", "source_url": "https://councildocs.dsm.city/communications/2016/16-501.pdf"}}, {"type": "Feature", "geometry": {"type": "Point", "coordinates": [-93.608666, 41.5845]}, "properties": {"name": "220 SE 6th Street office building and parking structure (PDM Precast / GPS Impact)", "developer": "220 SE 6th Street Properties, LLC", "type": "Parking", "address": "220 SE 6th Street", "tif_npv": null, "tif_basis": null, "cost": 10700000, "tif_pct": null, "net_gain": null, "assessed": 7140000, "rebate_pd": null, "status": "completed", "nbhd": "Historic East Village", "ur_area": "DES MOINES METRO CENTER MERGED UR", "action_dt": "2016-08-22", "source_url": "https://councildocs.dsm.city/communications/2016/16-479.pdf"}}, {"type": "Feature", "geometry": {"type": "Point", "coordinates": [-93.644489, 41.543454]}, "properties": {"name": "Fleur Drive commercial area (Panera Bread Cafe / former Mezzodi's site)", "developer": "Raccoon Valley Investment Company, L.C.", "type": "Other", "address": "4519 Fleur Drive (east of Fleur Drive, north of McKinley Avenue)", "tif_npv": null, "tif_basis": null, "cost": null, "tif_pct": null, "net_gain": null, "assessed": 1350000, "rebate_pd": 89543, "status": "approved", "nbhd": "Watrous South", "ur_area": "DES MOINES FLEUR DRIVE COMMERCIAL UR", "action_dt": "2016-08-22", "source_url": "https://councildocs.dsm.city/communications/2016/16-470.pdf"}}, {"type": "Feature", "geometry": {"type": "Point", "coordinates": [-93.625162, 41.594071]}, "properties": {"name": "College Hill Apartments renovation + commercial office building", "developer": "College Hill Associates, L.P. (owner) / Newbury Management Company (developer)", "type": "Residential", "address": "921 6th Avenue", "tif_npv": null, "tif_basis": null, "cost": null, "tif_pct": null, "net_gain": null, "assessed": 2120000, "rebate_pd": 762247, "status": "completed", "nbhd": null, "ur_area": "DES MOINES METRO CENTER MERGED UR", "action_dt": "2016-08-22", "source_url": "https://councildocs.dsm.city/communications/2016/16-471.pdf"}}, {"type": "Feature", "geometry": {"type": "Point", "coordinates": [-93.629738, 41.584327]}, "properties": {"name": "Hotel Fort Des Moines renovation", "developer": "Janssen Lodging, Inc.", "type": "Hotel", "address": "1000 Walnut Street", "tif_npv": 4118993, "tif_basis": "unverified (no NPV stated in source)", "cost": 37000000, "tif_pct": 11.1, "net_gain": null, "assessed": 15500000, "rebate_pd": null, "status": "completed", "nbhd": "Downtown Des Moines", "ur_area": "DES MOINES METRO CENTER MERGED UR", "action_dt": "2016-08-08", "source_url": "https://councildocs.dsm.city/communications/2016/16-434.pdf"}}, {"type": "Feature", "geometry": {"type": "Point", "coordinates": [-93.64203, 41.584964]}, "properties": {"name": "Roers Investments, LLC", "developer": "Roers Investments, LLC", "type": "Residential", "address": "2301 Ingersoll Avenue; 1400 Walnut Street", "tif_npv": null, "tif_basis": null, "cost": 50000000, "tif_pct": null, "net_gain": null, "assessed": 44327000, "rebate_pd": 417500, "status": "approved", "nbhd": null, "ur_area": "DES MOINES INGERSOLL-GRAND COMMERCIAL UR", "action_dt": "2016-07-11", "source_url": "https://councildocs.dsm.city/communications/2016/16-388.pdf"}}]}