{"type": "FeatureCollection", "features": [{"type": "Feature", "geometry": {"type": "Polygon", "coordinates": [[[-93.697688, 41.648901], [-93.697268, 41.648912], [-93.695018, 41.648798], [-93.695021, 41.64812], [-93.695027, 41.646391], [-93.695035, 41.645455], [-93.695037, 41.644988], [-93.695867, 41.644977], [-93.695873, 41.644453], [-93.695873, 41.643808], [-93.69306, 41.643835], [-93.693067, 41.642559], [-93.69307, 41.642148], [-93.693074, 41.641325], [-93.693782, 41.641318], [-93.694415, 41.641312], [-93.694422, 41.64003], [-93.694941, 41.640029], [-93.69495, 41.638054], [-93.694436, 41.638056], [-93.694444, 41.636821], [-93.688989, 41.63671], [-93.688956, 41.629439], [-93.684755, 41.629467], [-93.684538, 41.614847], [-93.682729, 41.614881], [-93.682683, 41.611317], [-93.693105, 41.611255], [-93.693059, 41.600565], [-93.703645, 41.600453], [-93.703767, 41.60765], [-93.703746, 41.614879], [-93.70809, 41.614968], [-93.708088, 41.615443], [-93.70776, 41.615442], [-93.707759, 41.615762], [-93.707669, 41.616086], [-93.707344, 41.616086], [-93.707343, 41.616689], [-93.708649, 41.616689], [-93.708603, 41.622129], [-93.703794, 41.62214], [-93.703782, 41.624993], [-93.703818, 41.628614], [-93.703844, 41.629394], [-93.702563, 41.629397], [-93.702578, 41.63666], [-93.698338, 41.636685], [-93.697737, 41.636689], [-93.697688, 41.648901]]]}, "properties": {"name": "Merle Hay", "projects": 3, "tif_npv": 674000, "cost": 6200000, "net_gain": 3613879, "assessed": 14780000}}, {"type": "Feature", "geometry": {"type": "Polygon", "coordinates": [[[-93.703645, 41.600453], [-93.693058, 41.600406], [-93.693044, 41.600048], [-93.6931, 41.599872], [-93.693497, 41.599424], [-93.693674, 41.599183], [-93.693751, 41.598964], [-93.69376, 41.592743], [-93.703549, 41.593094], [-93.703679, 41.600421], [-93.703755, 41.600579], [-93.703645, 41.600453]]]}, "properties": {"name": "Waveland Woods", "projects": 0, "tif_npv": 0, "cost": 0, "net_gain": 0, "assessed": 0}}, {"type": "Feature", "geometry": {"type": "Polygon", "coordinates": [[[-93.682606, 41.591945], [-93.682026, 41.591842], [-93.681623, 41.591771], [-93.681286, 41.591711], [-93.681111, 41.591464], [-93.680674, 41.591463], [-93.680449, 41.591463], [-93.680448, 41.591217], [-93.680993, 41.591217], [-93.680448, 41.591123], [-93.680447, 41.590939], [-93.680446, 41.590664], [-93.680444, 41.59039], [-93.680667, 41.59039], [-93.680882, 41.590257], [-93.680881, 41.589983], [-93.681434, 41.589983], [-93.680949, 41.589948], [-93.680948, 41.589691], [-93.680947, 41.589432], [-93.680946, 41.589262], [-93.680946, 41.589089], [-93.680945, 41.588892], [-93.680944, 41.588713], [-93.680943, 41.588526], [-93.680943, 41.588345], [-93.680942, 41.588164], [-93.681428, 41.588164], [-93.681428, 41.587986], [-93.680942, 41.587986], [-93.680941, 41.587803], [-93.68094, 41.587621], [-93.68094, 41.587439], [-93.680939, 41.587257], [-93.680938, 41.587075], [-93.680937, 41.586893], [-93.680937, 41.586711], [-93.680936, 41.586537], [-93.681423, 41.586536], [-93.681422, 41.586262], [-93.680935, 41.586262], [-93.680934, 41.586057], [-93.680933, 41.585853], [-93.680932, 41.585657], [-93.680931, 41.585474], [-93.68093, 41.585243], [-93.680928, 41.584979], [-93.680914, 41.584759], [-93.680577, 41.584741], [-93.680316, 41.584686], [-93.679805, 41.584544], [-93.679569, 41.584482], [-93.679266, 41.584452], [-93.679176, 41.583622], [-93.679182, 41.581713], [-93.679246, 41.581151], [-93.679294, 41.580735], [-93.679187, 41.580052], [-93.679188, 41.579764], [-93.67919, 41.579374], [-93.679191, 41.578906], [-93.679192, 41.578631], [-93.679193, 41.578357], [-93.679194, 41.578083], [-93.679195, 41.577809], [-93.679196, 41.577534], [-93.679196, 41.577303], [-93.684071, 41.577304], [-93.68407, 41.577488], [-93.684066, 41.578156], [-93.684064, 41.578472], [-93.684056, 41.579703], [-93.684054, 41.580018], [-93.684051, 41.580567], [-93.68405, 41.580792], [-93.684048, 41.581065], [-93.684046, 41.581339], [-93.684045, 41.581614], [-93.684043, 41.581811], [-93.684042, 41.581981], [-93.684041, 41.582163], [-93.68404, 41.582437], [-93.684038, 41.582615], [-93.684037, 41.582837], [-93.684035, 41.583123], [-93.684034, 41.583301], [-93.684033, 41.583479], [-93.684032, 41.583671], [-93.68403, 41.583945], [-93.684289, 41.583945], [-93.684548, 41.583944], [-93.684544, 41.584463], [-93.68473, 41.584013], [-93.684988, 41.584012], [-93.685246, 41.583943], [-93.685247, 41.58372], [-93.685523, 41.583619], [-93.685749, 41.583718], [-93.686393, 41.584122], [-93.68654, 41.583617], [-93.686867, 41.583597], [-93.686993, 41.583425], [-93.687306, 41.583398], [-93.687448, 41.583053], [-93.687449, 41.582877], [-93.687972, 41.582877], [-93.688301, 41.582812], [-93.688627, 41.582812], [-93.68888, 41.58293], [-93.688886, 41.582097], [-93.688889, 41.581799], [-93.68889, 41.581579], [-93.688892, 41.581359], [-93.688894, 41.58114], [-93.688895, 41.58092], [-93.689534, 41.580917], [-93.689951, 41.580915], [-93.689946, 41.581645], [-93.690302, 41.581643], [-93.690712, 41.581597], [-93.690715, 41.580911], [-93.691175, 41.580909], [-93.691195, 41.581126], [-93.691193, 41.581642], [-93.691521, 41.581643], [-93.692015, 41.581644], [-93.692017, 41.580904], [-93.69227, 41.580903], [-93.693073, 41.580899], [-93.693073, 41.581174], [-93.693074, 41.58145], [-93.693074, 41.58163], [-93.693075, 41.581905], [-93.693075, 41.582181], [-93.693624, 41.582182], [-93.693626, 41.58273], [-93.693867, 41.582797], [-93.693866, 41.582397], [-93.694326, 41.582398], [-93.694619, 41.582399], [-93.694912, 41.582399], [-93.694911, 41.582212], [-93.694911, 41.582024], [-93.695458, 41.582025], [-93.695459, 41.582332], [-93.69597, 41.582484], [-93.695972, 41.582695], [-93.696116, 41.582338], [-93.696482, 41.582322], [-93.696481, 41.582138], [-93.696683, 41.58239], [-93.697003, 41.582391], [-93.697004, 41.582633], [-93.697167, 41.582276], [-93.697572, 41.582276], [-93.697977, 41.582277], [-93.697978, 41.582556], [-93.698197, 41.582613], [-93.698159, 41.582261], [-93.698572, 41.582259], [-93.698571, 41.581985], [-93.69857, 41.581712], [-93.698568, 41.581439], [-93.698567, 41.581165], [-93.698566, 41.580892], [-93.698564, 41.58049], [-93.699616, 41.581329], [-93.700592, 41.582108], [-93.701204, 41.582596], [-93.701692, 41.582585], [-93.700952, 41.581995], [-93.701662, 41.581995], [-93.702385, 41.581994], [-93.702385, 41.582584], [-93.702549, 41.582036], [-93.702877, 41.582036], [-93.702875, 41.581404], [-93.702981, 41.581952], [-93.702984, 41.582467], [-93.703167, 41.582575], [-93.703387, 41.582612], [-93.703395, 41.584566], [-93.703461, 41.588199], [-93.704704, 41.588201], [-93.704721, 41.589152], [-93.706165, 41.589155], [-93.706814, 41.590116], [-93.707334, 41.590018], [-93.707205, 41.590409], [-93.707706, 41.590815], [-93.708268, 41.5913], [-93.708537, 41.591374], [-93.708808, 41.591498], [-93.709601, 41.591838], [-93.703527, 41.591832], [-93.703549, 41.593094], [-93.693761, 41.592586], [-93.683759, 41.592081], [-93.682606, 41.591945]]]}, "properties": {"name": "Waterbury", "projects": 0, "tif_npv": 0, "cost": 0, "net_gain": 0, "assessed": 0}}, {"type": "Feature", "geometry": {"type": "Polygon", "coordinates": [[[-93.674357, 41.58832], [-93.674339, 41.584626], [-93.674841, 41.58453], [-93.6756, 41.58453], [-93.675951, 41.58453], [-93.676407, 41.58453], [-93.677109, 41.584532], [-93.678585, 41.584536], [-93.678928, 41.584534], [-93.679166, 41.584545], [-93.679565, 41.584596], [-93.679934, 41.584682], [-93.680367, 41.584809], [-93.680724, 41.584856], [-93.681135, 41.584848], [-93.681528, 41.584783], [-93.681611, 41.588078], [-93.681618, 41.589917], [-93.681623, 41.591771], [-93.681111, 41.591711], [-93.679176, 41.591326], [-93.677762, 41.591267], [-93.674383, 41.591261], [-93.674357, 41.58832]]]}, "properties": {"name": "Ingersoll Park", "projects": 0, "tif_npv": 0, "cost": 0, "net_gain": 0, "assessed": 0}}, {"type": "Feature", "geometry": {"type": "Polygon", "coordinates": [[[-93.659357, 41.592348], [-93.659357, 41.591703], [-93.659315, 41.591067], [-93.65932, 41.589888], [-93.659317, 41.588776], [-93.659322, 41.586167], [-93.659332, 41.584436], [-93.666578, 41.584481], [-93.668113, 41.584491], [-93.673983, 41.584529], [-93.674292, 41.58453], [-93.674357, 41.58832], [-93.674383, 41.591261], [-93.674003, 41.591277], [-93.673614, 41.59132], [-93.673281, 41.59137], [-93.672859, 41.591463], [-93.672459, 41.59158], [-93.672259, 41.59166], [-93.671976, 41.591764], [-93.671527, 41.591957], [-93.670272, 41.592488], [-93.669845, 41.59266], [-93.669368, 41.592819], [-93.669013, 41.59292], [-93.668463, 41.593046], [-93.668058, 41.593113], [-93.66733, 41.593185], [-93.66688, 41.593198], [-93.666536, 41.593195], [-93.665164, 41.593162], [-93.662703, 41.59313], [-93.659359, 41.59311], [-93.659357, 41.592348]]]}, "properties": {"name": "North of Grand", "projects": 4, "tif_npv": 3300000, "cost": 58210000, "net_gain": 16947560, "assessed": 18883000}}, {"type": "Feature", "geometry": {"type": "Polygon", "coordinates": [[[-93.644341, 41.59441], [-93.644283, 41.592064], [-93.644687, 41.59157], [-93.644831, 41.591329], [-93.644862, 41.591065], [-93.644875, 41.58986], [-93.644847, 41.588045], [-93.644788, 41.585712], [-93.644897, 41.58454], [-93.645456, 41.584541], [-93.646019, 41.584539], [-93.646387, 41.584538], [-93.646753, 41.584537], [-93.646816, 41.585199], [-93.647091, 41.585197], [-93.647715, 41.585194], [-93.648083, 41.585084], [-93.648079, 41.584533], [-93.648444, 41.584532], [-93.648835, 41.58453], [-93.649205, 41.584529], [-93.649657, 41.584528], [-93.650023, 41.584526], [-93.650024, 41.585047], [-93.65039, 41.585073], [-93.650614, 41.585072], [-93.650851, 41.585072], [-93.650869, 41.585238], [-93.651106, 41.585237], [-93.651703, 41.585125], [-93.652025, 41.585276], [-93.652025, 41.585023], [-93.652026, 41.584776], [-93.652026, 41.58452], [-93.653292, 41.584516], [-93.653291, 41.585019], [-93.653613, 41.585038], [-93.653937, 41.584928], [-93.653936, 41.585244], [-93.654379, 41.585243], [-93.65462, 41.585279], [-93.654876, 41.585281], [-93.655168, 41.585199], [-93.655497, 41.585202], [-93.655935, 41.585205], [-93.656503, 41.585266], [-93.657087, 41.585315], [-93.657489, 41.585318], [-93.657818, 41.585356], [-93.658103, 41.585358], [-93.658512, 41.585361], [-93.658876, 41.585499], [-93.65924, 41.585662], [-93.659317, 41.588776], [-93.65932, 41.589888], [-93.659315, 41.591067], [-93.659357, 41.591703], [-93.659357, 41.592348], [-93.659359, 41.59311], [-93.658537, 41.5931], [-93.658253, 41.593065], [-93.656124, 41.593068], [-93.655275, 41.593142], [-93.654804, 41.593196], [-93.654399, 41.593256], [-93.654075, 41.593313], [-93.653663, 41.593391], [-93.653155, 41.593518], [-93.652717, 41.593641], [-93.652489, 41.593709], [-93.651899, 41.593917], [-93.650952, 41.594269], [-93.649696, 41.594724], [-93.648938, 41.595008], [-93.648518, 41.595162], [-93.648256, 41.595242], [-93.647759, 41.595393], [-93.647378, 41.59549], [-93.646581, 41.595656], [-93.645804, 41.595768], [-93.64514, 41.59583], [-93.644397, 41.595858], [-93.64374, 41.595859], [-93.643753, 41.59569], [-93.643755, 41.59549], [-93.643824, 41.595306], [-93.644007, 41.595053], [-93.644312, 41.594714], [-93.644341, 41.59441]]]}, "properties": {"name": "Woodland Heights", "projects": 3, "tif_npv": 1050000, "cost": 25100000, "net_gain": 3842906, "assessed": 9705900}}, {"type": "Feature", "geometry": {"type": "Polygon", "coordinates": [[[-93.640122, 41.595298], [-93.638305, 41.595305], [-93.63778, 41.595291], [-93.637785, 41.593495], [-93.637943, 41.593286], [-93.63811, 41.593137], [-93.637865, 41.592861], [-93.637792, 41.592664], [-93.637756, 41.592466], [-93.637751, 41.592268], [-93.637736, 41.591664], [-93.637709, 41.589872], [-93.637283, 41.588903], [-93.637169, 41.588667], [-93.637086, 41.586151], [-93.63735, 41.586054], [-93.637607, 41.585968], [-93.638124, 41.58584], [-93.638573, 41.585789], [-93.639125, 41.585761], [-93.640086, 41.585725], [-93.64039, 41.585701], [-93.641036, 41.585634], [-93.641403, 41.585681], [-93.642529, 41.585722], [-93.644788, 41.585712], [-93.644847, 41.588045], [-93.644875, 41.58986], [-93.644862, 41.591065], [-93.644831, 41.591329], [-93.644687, 41.59157], [-93.64429, 41.591932], [-93.644341, 41.59441], [-93.644342, 41.594588], [-93.644007, 41.595053], [-93.643824, 41.595315], [-93.640122, 41.595298]]]}, "properties": {"name": "Sherman Hill", "projects": 2, "tif_npv": 940000, "cost": 12000000, "net_gain": 4483359, "assessed": 1273000}}, {"type": "Feature", "geometry": {"type": "Polygon", "coordinates": [[[-93.679189, 41.579767], [-93.677991, 41.579768], [-93.677978, 41.580058], [-93.674314, 41.580061], [-93.674306, 41.577262], [-93.674973, 41.577261], [-93.674978, 41.574525], [-93.674977, 41.574257], [-93.675, 41.573693], [-93.675046, 41.573434], [-93.675058, 41.573139], [-93.674961, 41.572871], [-93.675067, 41.572325], [-93.67509, 41.572039], [-93.673447, 41.571898], [-93.673456, 41.571067], [-93.673623, 41.570879], [-93.673391, 41.570209], [-93.673335, 41.570047], [-93.673475, 41.569242], [-93.675671, 41.567643], [-93.677472, 41.56764], [-93.678631, 41.568073], [-93.679447, 41.568743], [-93.680426, 41.569195], [-93.680835, 41.569538], [-93.681243, 41.569623], [-93.681581, 41.570042], [-93.681609, 41.572387], [-93.679179, 41.572434], [-93.679192, 41.577308], [-93.679189, 41.579767]]]}, "properties": {"name": "Linden Heights", "projects": 0, "tif_npv": 0, "cost": 0, "net_gain": 0, "assessed": 0}}, {"type": "Feature", "geometry": {"type": "Polygon", "coordinates": [[[-93.659332, 41.584436], [-93.658372, 41.584418], [-93.65838, 41.582944], [-93.658398, 41.580838], [-93.658138, 41.58083], [-93.658148, 41.580101], [-93.659343, 41.580108], [-93.659362, 41.578065], [-93.659243, 41.577621], [-93.659158, 41.57691], [-93.659772, 41.576456], [-93.660127, 41.576234], [-93.660505, 41.575975], [-93.663435, 41.574363], [-93.665804, 41.573058], [-93.666367, 41.573542], [-93.666998, 41.575033], [-93.667237, 41.575904], [-93.66887, 41.57591], [-93.668873, 41.577367], [-93.669066, 41.578504], [-93.668723, 41.578522], [-93.668631, 41.57958], [-93.668774, 41.580024], [-93.668395, 41.580024], [-93.668397, 41.58054], [-93.668255, 41.580895], [-93.668175, 41.581784], [-93.668294, 41.58213], [-93.667408, 41.5827], [-93.667398, 41.583286], [-93.667753, 41.583286], [-93.667756, 41.584485], [-93.666578, 41.584481], [-93.659332, 41.584436]]]}, "properties": {"name": "Greenwood Historic", "projects": 0, "tif_npv": 0, "cost": 0, "net_gain": 0, "assessed": 0}}, {"type": "Feature", "geometry": {"type": "Polygon", "coordinates": [[[-93.64501, 41.56883], [-93.64513, 41.562681], [-93.645071, 41.548221], [-93.645082, 41.540985], [-93.645135, 41.540428], [-93.645092, 41.526949], [-93.645238, 41.526737], [-93.645783, 41.526539], [-93.655206, 41.52655], [-93.667639, 41.526523], [-93.673338, 41.526543], [-93.673588, 41.526517], [-93.674713, 41.526474], [-93.675398, 41.526534], [-93.675783, 41.526554], [-93.70316, 41.526566], [-93.703303, 41.538257], [-93.70351, 41.541147], [-93.703483, 41.548283], [-93.703367, 41.55559], [-93.69362, 41.555602], [-93.689052, 41.555607], [-93.68828, 41.555537], [-93.679173, 41.555538], [-93.679004, 41.555778], [-93.678065, 41.556373], [-93.674532, 41.55823], [-93.67201, 41.559534], [-93.671357, 41.559776], [-93.669908, 41.560216], [-93.668987, 41.560472], [-93.667746, 41.560968], [-93.661712, 41.563578], [-93.658704, 41.56484], [-93.658122, 41.565363], [-93.657859, 41.565731], [-93.657465, 41.566099], [-93.655379, 41.567416], [-93.655116, 41.567601], [-93.654665, 41.567813], [-93.654364, 41.567913], [-93.650224, 41.568229], [-93.649264, 41.568258], [-93.645995, 41.568235], [-93.645313, 41.568589], [-93.64501, 41.56883]]]}, "properties": {"name": "Southwestern Hills", "projects": 1, "tif_npv": 0, "cost": 0, "net_gain": 0, "assessed": 25200000}}, {"type": "Feature", "geometry": {"type": "Polygon", "coordinates": [[[-93.621658, 41.5743], [-93.621208, 41.573086], [-93.620555, 41.57322], [-93.619699, 41.573119], [-93.619033, 41.572874], [-93.618503, 41.57263], [-93.617932, 41.572314], [-93.61759, 41.572216], [-93.617361, 41.572223], [-93.617116, 41.572193], [-93.615606, 41.57195], [-93.615037, 41.571766], [-93.614588, 41.571573], [-93.614303, 41.571318], [-93.614085, 41.571053], [-93.613926, 41.570729], [-93.613702, 41.569799], [-93.612711, 41.5698], [-93.612296, 41.569776], [-93.609206, 41.569783], [-93.607684, 41.569764], [-93.606937, 41.569775], [-93.606651, 41.569805], [-93.606326, 41.569918], [-93.605986, 41.569949], [-93.602046, 41.569922], [-93.601815, 41.569881], [-93.601598, 41.56981], [-93.601309, 41.569748], [-93.599437, 41.56974], [-93.597223, 41.569732], [-93.596924, 41.569743], [-93.596955, 41.562825], [-93.596995, 41.562611], [-93.596991, 41.560163], [-93.596918, 41.556551], [-93.59693, 41.555327], [-93.597874, 41.555338], [-93.598801, 41.555344], [-93.601101, 41.555342], [-93.602622, 41.555354], [-93.604179, 41.555359], [-93.606539, 41.55537], [-93.611331, 41.555385], [-93.614619, 41.555408], [-93.617793, 41.555425], [-93.620976, 41.555441], [-93.624517, 41.555457], [-93.625752, 41.555451], [-93.625719, 41.556375], [-93.625708, 41.556687], [-93.625693, 41.556995], [-93.625703, 41.557274], [-93.625709, 41.558125], [-93.625714, 41.560567], [-93.625753, 41.561132], [-93.62564, 41.561434], [-93.625641, 41.561849], [-93.625591, 41.562085], [-93.625466, 41.562339], [-93.624728, 41.563518], [-93.624628, 41.563745], [-93.623877, 41.564943], [-93.62354, 41.565857], [-93.623028, 41.567338], [-93.622966, 41.567649], [-93.622842, 41.568469], [-93.622855, 41.56879], [-93.622871, 41.570335], [-93.622947, 41.570656], [-93.623603, 41.572493], [-93.623448, 41.572707], [-93.621989, 41.574022], [-93.621658, 41.5743]]]}, "properties": {"name": "Indianola Hills", "projects": 0, "tif_npv": 0, "cost": 0, "net_gain": 0, "assessed": 0}}, {"type": "Feature", "geometry": {"type": "Polygon", "coordinates": [[[-93.609655, 41.579226], [-93.606918, 41.578289], [-93.606638, 41.578193], [-93.603827, 41.577327], [-93.602158, 41.576812], [-93.599258, 41.575892], [-93.597528, 41.575963], [-93.596906, 41.575989], [-93.596899, 41.575032], [-93.596924, 41.569743], [-93.597223, 41.569732], [-93.599437, 41.56974], [-93.601309, 41.569748], [-93.601598, 41.56981], [-93.601815, 41.569881], [-93.602046, 41.569922], [-93.605986, 41.569949], [-93.606326, 41.569918], [-93.606651, 41.569805], [-93.606937, 41.569775], [-93.607684, 41.569764], [-93.609206, 41.569783], [-93.612296, 41.569776], [-93.612711, 41.5698], [-93.613702, 41.569799], [-93.613926, 41.570729], [-93.614085, 41.571053], [-93.614303, 41.571318], [-93.614588, 41.571573], [-93.615037, 41.571766], [-93.615606, 41.57195], [-93.61636, 41.572071], [-93.617116, 41.572193], [-93.617361, 41.572223], [-93.61759, 41.572216], [-93.617932, 41.572314], [-93.618503, 41.57263], [-93.619033, 41.572874], [-93.619699, 41.573119], [-93.620338, 41.57322], [-93.621208, 41.573086], [-93.621658, 41.5743], [-93.621233, 41.574992], [-93.620188, 41.575748], [-93.617907, 41.578229], [-93.614099, 41.579282], [-93.61198, 41.57919], [-93.611713, 41.57955], [-93.611495, 41.579854], [-93.609655, 41.579226]]]}, "properties": {"name": "McKinley School/Columbus Park", "projects": 2, "tif_npv": 5800000, "cost": 112200000, "net_gain": 30720390, "assessed": 17408900}}, {"type": "Feature", "geometry": {"type": "Polygon", "coordinates": [[[-93.59693, 41.555327], [-93.596929, 41.557096], [-93.596991, 41.560163], [-93.596995, 41.562611], [-93.596955, 41.562825], [-93.596924, 41.569743], [-93.596321, 41.56987], [-93.595525, 41.569924], [-93.594871, 41.56992], [-93.594421, 41.569918], [-93.593868, 41.569923], [-93.593182, 41.569922], [-93.59283, 41.56992], [-93.59188, 41.569926], [-93.591493, 41.569933], [-93.590591, 41.569955], [-93.589674, 41.570028], [-93.588522, 41.570229], [-93.587035, 41.570577], [-93.586806, 41.57063], [-93.586594, 41.570686], [-93.586289, 41.570766], [-93.585973, 41.570818], [-93.58531, 41.570867], [-93.584926, 41.570826], [-93.584542, 41.570762], [-93.582285, 41.570236], [-93.581674, 41.570093], [-93.581074, 41.56995], [-93.579801, 41.569488], [-93.578625, 41.569006], [-93.577557, 41.568501], [-93.577221, 41.568343], [-93.576736, 41.568067], [-93.575802, 41.567538], [-93.573996, 41.566427], [-93.574154, 41.566116], [-93.574746, 41.564747], [-93.574845, 41.564543], [-93.574963, 41.564372], [-93.575196, 41.564141], [-93.575554, 41.563879], [-93.57628, 41.563383], [-93.576889, 41.562949], [-93.577062, 41.562815], [-93.577275, 41.562581], [-93.577397, 41.562348], [-93.577457, 41.562091], [-93.577473, 41.560536], [-93.577468, 41.556836], [-93.57746, 41.555157], [-93.577455, 41.55344], [-93.577443, 41.552596], [-93.577442, 41.552173], [-93.577436, 41.550813], [-93.577508, 41.550577], [-93.57974, 41.551073], [-93.57974, 41.550464], [-93.579738, 41.549949], [-93.579737, 41.549775], [-93.579739, 41.54804], [-93.578658, 41.548038], [-93.578434, 41.548037], [-93.574842, 41.54803], [-93.57041, 41.54794], [-93.568143, 41.547935], [-93.565375, 41.547915], [-93.56255, 41.547894], [-93.561409, 41.54792], [-93.558261, 41.547896], [-93.549052, 41.547611], [-93.545342, 41.547477], [-93.545353, 41.546133], [-93.54538, 41.540188], [-93.544168, 41.540147], [-93.544033, 41.525639], [-93.544077, 41.518405], [-93.548979, 41.51857], [-93.5545, 41.518748], [-93.558486, 41.518839], [-93.564698, 41.518922], [-93.56791, 41.518914], [-93.571871, 41.518937], [-93.572656, 41.518942], [-93.577499, 41.518974], [-93.595772, 41.519159], [-93.596116, 41.519784], [-93.596368, 41.520354], [-93.596614, 41.521128], [-93.596744, 41.521912], [-93.596793, 41.526312], [-93.596807, 41.535411], [-93.596846, 41.540638], [-93.596924, 41.546876], [-93.596931, 41.547414], [-93.596939, 41.548093], [-93.59693, 41.555327]]]}, "properties": {"name": "Easter Lake Area", "projects": 1, "tif_npv": 5724899, "cost": 25989600, "net_gain": 31530291, "assessed": 56120}}, {"type": "Feature", "geometry": {"type": "Polygon", "coordinates": [[[-93.596844, 41.586889], [-93.596854, 41.588693], [-93.596799, 41.589664], [-93.596873, 41.590243], [-93.596948, 41.590578], [-93.597201, 41.591277], [-93.597618, 41.592425], [-93.597967, 41.593391], [-93.598162, 41.593928], [-93.598338, 41.594446], [-93.598522, 41.594986], [-93.598912, 41.596044], [-93.594371, 41.596971], [-93.593363, 41.597256], [-93.592392, 41.597595], [-93.589668, 41.598754], [-93.585653, 41.600509], [-93.582583, 41.600512], [-93.582666, 41.591268], [-93.582914, 41.590361], [-93.583517, 41.589729], [-93.584085, 41.589354], [-93.584808, 41.588856], [-93.59092, 41.587143], [-93.591477, 41.58708], [-93.592934, 41.586892], [-93.596626, 41.586889], [-93.596844, 41.586889]]]}, "properties": {"name": "Capitol East", "projects": 0, "tif_npv": 0, "cost": 0, "net_gain": 0, "assessed": 0}}, {"type": "Feature", "geometry": {"type": "Polygon", "coordinates": [[[-93.580698, 41.600596], [-93.576005, 41.600478], [-93.570731, 41.600494], [-93.567858, 41.6005], [-93.565309, 41.600535], [-93.563871, 41.600544], [-93.562362, 41.600549], [-93.561109, 41.600552], [-93.558393, 41.600577], [-93.558381, 41.595675], [-93.558364, 41.593732], [-93.558359, 41.592521], [-93.558355, 41.59147], [-93.558362, 41.588986], [-93.558363, 41.588819], [-93.561153, 41.589348], [-93.56226, 41.589559], [-93.563155, 41.589701], [-93.56392, 41.589806], [-93.564744, 41.589885], [-93.56611, 41.589955], [-93.567946, 41.589998], [-93.573855, 41.590127], [-93.574891, 41.590144], [-93.57588, 41.590161], [-93.576774, 41.590143], [-93.577551, 41.590098], [-93.583623, 41.589659], [-93.582914, 41.590361], [-93.582678, 41.591135], [-93.582583, 41.600512], [-93.580698, 41.600596]]]}, "properties": {"name": "Fairground", "projects": 0, "tif_npv": 0, "cost": 0, "net_gain": 0, "assessed": 0}}, {"type": "Feature", "geometry": {"type": "Polygon", "coordinates": [[[-93.598522, 41.594986], [-93.598338, 41.594446], [-93.598162, 41.593928], [-93.597967, 41.593391], [-93.597618, 41.592425], [-93.597201, 41.591277], [-93.596948, 41.590578], [-93.596873, 41.590243], [-93.596799, 41.589664], [-93.596854, 41.588693], [-93.596844, 41.586889], [-93.596955, 41.576301], [-93.597528, 41.575963], [-93.599258, 41.575892], [-93.602158, 41.576812], [-93.603827, 41.577327], [-93.606638, 41.578193], [-93.606918, 41.578289], [-93.609655, 41.579226], [-93.611421, 41.579831], [-93.611823, 41.579968], [-93.612115, 41.580146], [-93.613449, 41.580956], [-93.615164, 41.58224], [-93.615921, 41.583979], [-93.616383, 41.585232], [-93.61758, 41.588724], [-93.617773, 41.589396], [-93.618391, 41.591539], [-93.618546, 41.592074], [-93.617814, 41.593687], [-93.616131, 41.595526], [-93.610878, 41.595232], [-93.606445, 41.594982], [-93.605134, 41.59497], [-93.604681, 41.594983], [-93.603887, 41.595076], [-93.602945, 41.595232], [-93.59894, 41.596043], [-93.598522, 41.594986]]]}, "properties": {"name": "Historic East Village", "projects": 18, "tif_npv": 24632356, "cost": 308046000, "net_gain": 64604456, "assessed": 107025400}}, {"type": "Feature", "geometry": {"type": "Polygon", "coordinates": [[[-93.616131, 41.595526], [-93.616293, 41.596192], [-93.615843, 41.597253], [-93.613926, 41.599758], [-93.61246, 41.602177], [-93.611333, 41.603833], [-93.610996, 41.605361], [-93.611, 41.607609], [-93.610449, 41.607542], [-93.608402, 41.607026], [-93.608388, 41.607655], [-93.601214, 41.607698], [-93.600539, 41.60772], [-93.600497, 41.60233], [-93.600477, 41.600574], [-93.599864, 41.598663], [-93.599052, 41.596433], [-93.598941, 41.596127], [-93.602945, 41.595232], [-93.603887, 41.595076], [-93.604681, 41.594983], [-93.605134, 41.59497], [-93.606445, 41.594982], [-93.610878, 41.595232], [-93.616126, 41.59553], [-93.616131, 41.595526]]]}, "properties": {"name": "Capitol Park", "projects": 0, "tif_npv": 0, "cost": 0, "net_gain": 0, "assessed": 0}}, {"type": "Feature", "geometry": {"type": "Polygon", "coordinates": [[[-93.600539, 41.60772], [-93.597887, 41.607749], [-93.595733, 41.607772], [-93.591033, 41.607776], [-93.590679, 41.607752], [-93.58394, 41.607749], [-93.582895, 41.607747], [-93.582894, 41.607509], [-93.582894, 41.607276], [-93.582894, 41.607071], [-93.582879, 41.605005], [-93.582868, 41.603133], [-93.58285, 41.601614], [-93.585602, 41.600509], [-93.589668, 41.598754], [-93.592392, 41.597595], [-93.593363, 41.597256], [-93.594371, 41.596971], [-93.598912, 41.596044], [-93.599052, 41.596433], [-93.599864, 41.598663], [-93.600454, 41.600411], [-93.600497, 41.60233], [-93.600539, 41.60768], [-93.600539, 41.60772]]]}, "properties": {"name": "Martin Luther King Jr. Park", "projects": 1, "tif_npv": 0, "cost": 1980000, "net_gain": 0, "assessed": 12900}}, {"type": "Feature", "geometry": {"type": "Polygon", "coordinates": [[[-93.570731, 41.600494], [-93.576005, 41.600478], [-93.580698, 41.600596], [-93.581993, 41.600538], [-93.582514, 41.600515], [-93.585602, 41.600509], [-93.584271, 41.601044], [-93.58285, 41.601614], [-93.582235, 41.60185], [-93.581735, 41.602091], [-93.581069, 41.602417], [-93.58072, 41.602601], [-93.580279, 41.602901], [-93.579862, 41.603251], [-93.579724, 41.603399], [-93.57953, 41.603599], [-93.579344, 41.603768], [-93.57917, 41.603899], [-93.57877, 41.604417], [-93.578019, 41.604757], [-93.576137, 41.605341], [-93.57088, 41.607306], [-93.570166, 41.608444], [-93.568758, 41.610663], [-93.565582, 41.615956], [-93.563968, 41.618619], [-93.563732, 41.618941], [-93.563506, 41.619107], [-93.557572, 41.622272], [-93.551521, 41.622322], [-93.551472, 41.612446], [-93.551474, 41.600603], [-93.555293, 41.60059], [-93.558393, 41.600577], [-93.561109, 41.600552], [-93.562362, 41.600549], [-93.563871, 41.600544], [-93.565309, 41.600535], [-93.567858, 41.6005], [-93.570731, 41.600494]]]}, "properties": {"name": "ACCENT", "projects": 0, "tif_npv": 0, "cost": 0, "net_gain": 0, "assessed": 0}}, {"type": "Feature", "geometry": {"type": "Polygon", "coordinates": [[[-93.529868, 41.600631], [-93.529852, 41.600438], [-93.529824, 41.590379], [-93.529823, 41.589912], [-93.530754, 41.589944], [-93.536932, 41.59017], [-93.538391, 41.590224], [-93.538626, 41.590232], [-93.538883, 41.590272], [-93.539123, 41.590342], [-93.539316, 41.59043], [-93.539656, 41.590637], [-93.540035, 41.590748], [-93.541454, 41.590817], [-93.544231, 41.590928], [-93.545611, 41.59098], [-93.549826, 41.591138], [-93.553868, 41.591295], [-93.556918, 41.591416], [-93.558355, 41.59147], [-93.558359, 41.592521], [-93.558364, 41.593671], [-93.558381, 41.595675], [-93.558393, 41.600577], [-93.555293, 41.60059], [-93.551474, 41.600603], [-93.550928, 41.600576], [-93.549929, 41.600581], [-93.5489, 41.600585], [-93.533373, 41.600651], [-93.529868, 41.600631]]]}, "properties": {"name": "Valley High Manor", "projects": 0, "tif_npv": 0, "cost": 0, "net_gain": 0, "assessed": 0}}, {"type": "Feature", "geometry": {"type": "Polygon", "coordinates": [[[-93.564024, 41.627695], [-93.561223, 41.627673], [-93.55949, 41.627692], [-93.556924, 41.627699], [-93.555469, 41.62771], [-93.552588, 41.627716], [-93.551506, 41.627719], [-93.551515, 41.626235], [-93.551521, 41.625503], [-93.551514, 41.622322], [-93.557572, 41.622272], [-93.558174, 41.621958], [-93.560108, 41.620896], [-93.561253, 41.62027], [-93.562684, 41.619537], [-93.563506, 41.619107], [-93.563732, 41.618941], [-93.563968, 41.618619], [-93.564857, 41.617164], [-93.570221, 41.608224], [-93.570899, 41.607246], [-93.576113, 41.605462], [-93.577876, 41.604851], [-93.57864, 41.604538], [-93.57917, 41.603899], [-93.579344, 41.603768], [-93.57953, 41.603599], [-93.579724, 41.603399], [-93.579862, 41.603251], [-93.580279, 41.602901], [-93.580633, 41.60266], [-93.580829, 41.602796], [-93.581241, 41.603477], [-93.58128, 41.603677], [-93.581289, 41.604697], [-93.58124, 41.604972], [-93.58126, 41.606009], [-93.581262, 41.607446], [-93.581259, 41.609928], [-93.581286, 41.615019], [-93.581298, 41.622296], [-93.581294, 41.625948], [-93.581305, 41.626115], [-93.581235, 41.6263], [-93.581118, 41.62649], [-93.580473, 41.627328], [-93.580404, 41.62755], [-93.580401, 41.627757], [-93.577361, 41.627762], [-93.576137, 41.627776], [-93.57584, 41.627771], [-93.575161, 41.627763], [-93.574591, 41.627756], [-93.573415, 41.627749], [-93.570843, 41.62774], [-93.567952, 41.627731], [-93.564024, 41.627695]]]}, "properties": {"name": "Fairmont Park", "projects": 0, "tif_npv": 0, "cost": 0, "net_gain": 0, "assessed": 0}}, {"type": "Feature", "geometry": {"type": "Polygon", "coordinates": [[[-93.573326, 41.626001], [-93.574186, 41.626002], [-93.575658, 41.626004], [-93.575661, 41.627225], [-93.575662, 41.627622], [-93.575653, 41.627897], [-93.575138, 41.627896], [-93.575083, 41.628214], [-93.575006, 41.628731], [-93.574977, 41.629019], [-93.575007, 41.629595], [-93.575723, 41.635885], [-93.575741, 41.636847], [-93.575271, 41.636844], [-93.575258, 41.63866], [-93.570825, 41.638628], [-93.570832, 41.636816], [-93.562602, 41.636754], [-93.562597, 41.637741], [-93.561178, 41.637731], [-93.56117, 41.639257], [-93.559999, 41.639261], [-93.559996, 41.639837], [-93.55852, 41.638875], [-93.558519, 41.64049], [-93.55804, 41.640491], [-93.55804, 41.639597], [-93.557576, 41.639625], [-93.557575, 41.640493], [-93.556631, 41.640496], [-93.556634, 41.638724], [-93.555137, 41.638731], [-93.555138, 41.637865], [-93.557327, 41.637854], [-93.557329, 41.636817], [-93.543071, 41.63684], [-93.543282, 41.636504], [-93.544024, 41.636358], [-93.544286, 41.636036], [-93.544787, 41.635669], [-93.544989, 41.635339], [-93.545347, 41.635177], [-93.545728, 41.635168], [-93.546169, 41.635007], [-93.546407, 41.634712], [-93.5463, 41.634184], [-93.546586, 41.634005], [-93.546943, 41.633978], [-93.547205, 41.63388], [-93.547527, 41.63371], [-93.547801, 41.633513], [-93.547669, 41.63295], [-93.547801, 41.632654], [-93.547764, 41.632082], [-93.547967, 41.631733], [-93.548467, 41.631518], [-93.548467, 41.631259], [-93.548181, 41.631018], [-93.548288, 41.630597], [-93.54787, 41.629837], [-93.548096, 41.629238], [-93.548108, 41.628853], [-93.548215, 41.628594], [-93.54856, 41.628335], [-93.54918, 41.628164], [-93.549275, 41.627735], [-93.551506, 41.627719], [-93.551685, 41.62761], [-93.551701, 41.627409], [-93.551712, 41.627208], [-93.551718, 41.627006], [-93.552633, 41.627], [-93.55263, 41.626396], [-93.551717, 41.626402], [-93.551713, 41.625528], [-93.55195, 41.625402], [-93.552275, 41.62523], [-93.552739, 41.624962], [-93.553948, 41.625013], [-93.553947, 41.625836], [-93.553956, 41.626221], [-93.553864, 41.626752], [-93.553863, 41.627527], [-93.554495, 41.627522], [-93.555396, 41.627423], [-93.556373, 41.627454], [-93.55683, 41.627473], [-93.557678, 41.627467], [-93.557678, 41.627217], [-93.557969, 41.627216], [-93.558261, 41.627214], [-93.558554, 41.627213], [-93.558553, 41.626863], [-93.558794, 41.626786], [-93.559253, 41.626783], [-93.559719, 41.626713], [-93.56, 41.626603], [-93.560237, 41.626602], [-93.560603, 41.6266], [-93.561089, 41.626597], [-93.56109, 41.62708], [-93.561366, 41.626969], [-93.561848, 41.626972], [-93.562402, 41.626976], [-93.562731, 41.626978], [-93.563169, 41.626981], [-93.563584, 41.626984], [-93.563949, 41.627014], [-93.564315, 41.627016], [-93.56468, 41.626991], [-93.564923, 41.626992], [-93.56535, 41.626995], [-93.565581, 41.626997], [-93.566019, 41.627], [-93.56602, 41.627233], [-93.566477, 41.627236], [-93.566697, 41.627234], [-93.566696, 41.626956], [-93.566694, 41.626499], [-93.568083, 41.626508], [-93.569288, 41.626516], [-93.570176, 41.626522], [-93.570724, 41.626526], [-93.570728, 41.627188], [-93.570947, 41.627188], [-93.571257, 41.627188], [-93.571523, 41.627189], [-93.571521, 41.626887], [-93.572096, 41.626888], [-93.572517, 41.626889], [-93.572585, 41.626384], [-93.572934, 41.626203], [-93.573247, 41.626041], [-93.573326, 41.626001]]]}, "properties": {"name": "Douglas Acres", "projects": 0, "tif_npv": 0, "cost": 0, "net_gain": 0, "assessed": 0}}, {"type": "Feature", "geometry": {"type": "Polygon", "coordinates": [[[-93.610449, 41.607542], [-93.610766, 41.607865], [-93.611169, 41.608955], [-93.612424, 41.610045], [-93.61428, 41.611134], [-93.615885, 41.612072], [-93.616186, 41.611997], [-93.61729, 41.612748], [-93.619867, 41.613331], [-93.619884, 41.614044], [-93.619889, 41.616319], [-93.619983, 41.620096], [-93.619987, 41.622265], [-93.610595, 41.622274], [-93.605744, 41.622252], [-93.592104, 41.622277], [-93.592074, 41.622114], [-93.591342, 41.618199], [-93.591341, 41.61776], [-93.591409, 41.61727], [-93.591667, 41.61665], [-93.591855, 41.61634], [-93.592713, 41.614997], [-93.596736, 41.608818], [-93.597072, 41.608412], [-93.59745, 41.608063], [-93.597887, 41.607749], [-93.600539, 41.60772], [-93.601214, 41.607698], [-93.608388, 41.607655], [-93.608402, 41.607026], [-93.610449, 41.607542]]]}, "properties": {"name": "Union Park", "projects": 0, "tif_npv": 0, "cost": 0, "net_gain": 0, "assessed": 0}}, {"type": "Feature", "geometry": {"type": "Polygon", "coordinates": [[[-93.645337, 41.612175], [-93.646448, 41.615055], [-93.643361, 41.615054], [-93.641176, 41.615048], [-93.639043, 41.615014], [-93.639026, 41.613573], [-93.638392, 41.613574], [-93.638395, 41.612637], [-93.639045, 41.612645], [-93.639039, 41.61216], [-93.637717, 41.612162], [-93.637581, 41.611957], [-93.637418, 41.611824], [-93.637411, 41.611155], [-93.636614, 41.611144], [-93.634253, 41.61114], [-93.634249, 41.609521], [-93.634237, 41.607702], [-93.634217, 41.605875], [-93.636624, 41.605879], [-93.639028, 41.605882], [-93.641441, 41.605894], [-93.641445, 41.607716], [-93.643858, 41.60772], [-93.64386, 41.608567], [-93.643996, 41.608957], [-93.644414, 41.609994], [-93.644612, 41.610462], [-93.644811, 41.610922], [-93.645009, 41.611374], [-93.645337, 41.612175]]]}, "properties": {"name": "Mondamin Presidential", "projects": 0, "tif_npv": 0, "cost": 0, "net_gain": 0, "assessed": 0}}, {"type": "Feature", "geometry": {"type": "Polygon", "coordinates": [[[-93.630643, 41.614127], [-93.630033, 41.613926], [-93.630024, 41.612579], [-93.630018, 41.610193], [-93.63002, 41.607704], [-93.630014, 41.606783], [-93.630041, 41.606462], [-93.630118, 41.606285], [-93.630043, 41.606084], [-93.630008, 41.605882], [-93.629995, 41.604081], [-93.630143, 41.602273], [-93.62997, 41.600625], [-93.630574, 41.600438], [-93.637788, 41.600421], [-93.643832, 41.600414], [-93.643844, 41.601759], [-93.643858, 41.604071], [-93.643859, 41.604561], [-93.643853, 41.605892], [-93.643858, 41.60772], [-93.641445, 41.607716], [-93.641441, 41.605894], [-93.639028, 41.605882], [-93.636624, 41.605879], [-93.634217, 41.605875], [-93.634237, 41.607702], [-93.634249, 41.609521], [-93.634253, 41.61114], [-93.633923, 41.611169], [-93.633634, 41.611309], [-93.633447, 41.611416], [-93.633218, 41.61158], [-93.633042, 41.611681], [-93.632763, 41.611758], [-93.632432, 41.61192], [-93.632221, 41.612042], [-93.632239, 41.612232], [-93.632394, 41.61241], [-93.63255, 41.612592], [-93.632642, 41.612746], [-93.632681, 41.612963], [-93.6326, 41.61313], [-93.6324, 41.613223], [-93.632131, 41.613239], [-93.631906, 41.613297], [-93.631722, 41.61339], [-93.631493, 41.613616], [-93.631282, 41.613926], [-93.631166, 41.614087], [-93.630972, 41.614178], [-93.630729, 41.614157], [-93.630643, 41.614127]]]}, "properties": {"name": "King Irving", "projects": 0, "tif_npv": 0, "cost": 0, "net_gain": 0, "assessed": 0}}, {"type": "Feature", "geometry": {"type": "Polygon", "coordinates": [[[-93.62997, 41.600625], [-93.629974, 41.602273], [-93.630155, 41.604067], [-93.630008, 41.605882], [-93.630014, 41.606084], [-93.630043, 41.606283], [-93.630118, 41.606462], [-93.63004, 41.606786], [-93.63002, 41.607704], [-93.630018, 41.610193], [-93.630024, 41.612579], [-93.630033, 41.613926], [-93.630643, 41.614127], [-93.630641, 41.614364], [-93.628669, 41.614888], [-93.627392, 41.614456], [-93.627253, 41.614306], [-93.62633, 41.614097], [-93.625284, 41.613862], [-93.624414, 41.613564], [-93.620778, 41.612781], [-93.619849, 41.61258], [-93.616559, 41.611491], [-93.612225, 41.609154], [-93.611345, 41.607837], [-93.611641, 41.604247], [-93.613877, 41.60037], [-93.619712, 41.600319], [-93.623751, 41.600315], [-93.624077, 41.600321], [-93.624377, 41.600394], [-93.625048, 41.600664], [-93.625295, 41.600737], [-93.625542, 41.60079], [-93.627221, 41.600806], [-93.629377, 41.600795], [-93.62997, 41.600625]]]}, "properties": {"name": "River Bend", "projects": 7, "tif_npv": 1310000, "cost": 47660000, "net_gain": 1909419, "assessed": 4200400}}, {"type": "Feature", "geometry": {"type": "Polygon", "coordinates": [[[-93.665804, 41.573058], [-93.666373, 41.571902], [-93.668649, 41.571716], [-93.66946, 41.571104], [-93.670435, 41.570736], [-93.673391, 41.570209], [-93.673623, 41.570879], [-93.673456, 41.571067], [-93.673447, 41.571898], [-93.675066, 41.571905], [-93.675067, 41.572325], [-93.675069, 41.572853], [-93.674974, 41.573148], [-93.675046, 41.573434], [-93.675, 41.573693], [-93.674977, 41.574257], [-93.674978, 41.574525], [-93.674973, 41.577261], [-93.674306, 41.577262], [-93.674314, 41.580061], [-93.677978, 41.580058], [-93.677991, 41.579768], [-93.679189, 41.579767], [-93.679188, 41.580057], [-93.679187, 41.580733], [-93.678703, 41.580735], [-93.678679, 41.581311], [-93.678305, 41.581307], [-93.678227, 41.581734], [-93.677843, 41.581735], [-93.677486, 41.581885], [-93.677115, 41.581796], [-93.67712, 41.583839], [-93.677109, 41.584532], [-93.676407, 41.58453], [-93.675951, 41.58453], [-93.6756, 41.58453], [-93.675057, 41.58453], [-93.674292, 41.58453], [-93.673983, 41.584529], [-93.668113, 41.584491], [-93.666578, 41.584481], [-93.667756, 41.584485], [-93.667753, 41.583286], [-93.667398, 41.583286], [-93.667408, 41.5827], [-93.668294, 41.58213], [-93.668293, 41.581784], [-93.668208, 41.580887], [-93.668254, 41.58054], [-93.668395, 41.580024], [-93.668774, 41.580024], [-93.668773, 41.57958], [-93.66864, 41.578558], [-93.669066, 41.578504], [-93.669063, 41.577367], [-93.66887, 41.57591], [-93.667237, 41.575904], [-93.667069, 41.575175], [-93.666367, 41.573542], [-93.665845, 41.573036], [-93.665804, 41.573058]]]}, "properties": {"name": "Salisbury Oaks", "projects": 1, "tif_npv": 4800000, "cost": 37400000, "net_gain": 25868159, "assessed": 45700}}, {"type": "Feature", "geometry": {"type": "Polygon", "coordinates": [[[-93.679166, 41.584545], [-93.678928, 41.584534], [-93.678585, 41.584536], [-93.677109, 41.584532], [-93.67712, 41.583839], [-93.677115, 41.581796], [-93.677486, 41.581785], [-93.67783, 41.581884], [-93.678227, 41.581734], [-93.678199, 41.581307], [-93.678679, 41.581311], [-93.678703, 41.580735], [-93.679187, 41.580733], [-93.679188, 41.580057], [-93.679189, 41.579767], [-93.679192, 41.577308], [-93.679179, 41.572434], [-93.681609, 41.572387], [-93.681581, 41.570042], [-93.68236, 41.570628], [-93.683358, 41.571024], [-93.683857, 41.571397], [-93.684511, 41.57163], [-93.685134, 41.57198], [-93.685945, 41.572212], [-93.687098, 41.573029], [-93.687566, 41.573145], [-93.688033, 41.573378], [-93.688686, 41.573049], [-93.689184, 41.573119], [-93.689434, 41.573329], [-93.689404, 41.573632], [-93.689125, 41.574077], [-93.68925, 41.574287], [-93.690308, 41.574099], [-93.690836, 41.573794], [-93.691241, 41.573817], [-93.691678, 41.574237], [-93.69202, 41.574236], [-93.69233, 41.573651], [-93.692703, 41.573697], [-93.69314, 41.573977], [-93.693328, 41.574374], [-93.69445, 41.574886], [-93.69526, 41.575212], [-93.695885, 41.575679], [-93.696109, 41.575796], [-93.697054, 41.576023], [-93.698751, 41.576548], [-93.699328, 41.576812], [-93.700257, 41.577158], [-93.700674, 41.577626], [-93.700915, 41.577782], [-93.701541, 41.578382], [-93.701606, 41.578742], [-93.701927, 41.579006], [-93.702313, 41.579798], [-93.702778, 41.580131], [-93.702811, 41.580693], [-93.702999, 41.580996], [-93.703096, 41.582398], [-93.703345, 41.582693], [-93.702497, 41.582694], [-93.701149, 41.582694], [-93.699939, 41.582699], [-93.69806, 41.582698], [-93.697774, 41.582722], [-93.696758, 41.582766], [-93.696048, 41.582796], [-93.694043, 41.582886], [-93.693755, 41.582845], [-93.691731, 41.582633], [-93.691395, 41.582622], [-93.691113, 41.582677], [-93.69082, 41.582768], [-93.68969, 41.583144], [-93.687642, 41.583829], [-93.686173, 41.584326], [-93.685891, 41.584434], [-93.685546, 41.584521], [-93.685272, 41.584556], [-93.683977, 41.584552], [-93.683515, 41.584546], [-93.683237, 41.584538], [-93.682902, 41.584559], [-93.682621, 41.584598], [-93.681599, 41.58477], [-93.681135, 41.584848], [-93.680724, 41.584856], [-93.680367, 41.584809], [-93.680119, 41.584747], [-93.679703, 41.584627], [-93.679203, 41.584549], [-93.679166, 41.584545]]]}, "properties": {"name": "Westwood", "projects": 0, "tif_npv": 0, "cost": 0, "net_gain": 0, "assessed": 0}}, {"type": "Feature", "geometry": {"type": "Polygon", "coordinates": [[[-93.611494, 41.579856], [-93.611713, 41.57955], [-93.611908, 41.579282], [-93.614099, 41.579282], [-93.617907, 41.578229], [-93.620188, 41.575748], [-93.621233, 41.574992], [-93.621658, 41.5743], [-93.621989, 41.574022], [-93.623381, 41.572849], [-93.623603, 41.572493], [-93.624762, 41.572103], [-93.626041, 41.572101], [-93.630522, 41.573441], [-93.630945, 41.57352], [-93.633595, 41.574014], [-93.63641, 41.574011], [-93.638712, 41.573336], [-93.640886, 41.573045], [-93.64255, 41.573427], [-93.643448, 41.574099], [-93.643963, 41.575635], [-93.643838, 41.576981], [-93.64324, 41.577957], [-93.643073, 41.578231], [-93.642179, 41.579193], [-93.641284, 41.579482], [-93.640647, 41.580924], [-93.640941, 41.581896], [-93.641514, 41.582181], [-93.642118, 41.582276], [-93.640764, 41.583487], [-93.64059, 41.583723], [-93.640835, 41.584245], [-93.641183, 41.584401], [-93.641036, 41.585634], [-93.64039, 41.585701], [-93.640086, 41.585725], [-93.639125, 41.585761], [-93.638573, 41.585789], [-93.638124, 41.58584], [-93.637793, 41.585906], [-93.63735, 41.586054], [-93.637086, 41.586151], [-93.637143, 41.588531], [-93.637205, 41.588772], [-93.637709, 41.589872], [-93.637736, 41.591664], [-93.632133, 41.591664], [-93.628046, 41.591608], [-93.62443, 41.591587], [-93.621493, 41.591572], [-93.618391, 41.591539], [-93.617773, 41.589396], [-93.61758, 41.588724], [-93.616383, 41.585232], [-93.615921, 41.583979], [-93.615164, 41.58224], [-93.613449, 41.580956], [-93.612115, 41.580146], [-93.611823, 41.579968], [-93.611494, 41.579856]]]}, "properties": {"name": "Downtown Des Moines", "projects": 34, "tif_npv": 58046975, "cost": 597310000, "net_gain": 102084357, "assessed": 406800100}}, {"type": "Feature", "geometry": {"type": "Polygon", "coordinates": [[[-93.69057, 41.644106], [-93.687811, 41.644077], [-93.686028, 41.644034], [-93.685982, 41.645438], [-93.685545, 41.645441], [-93.685547, 41.645963], [-93.684677, 41.64597], [-93.684669, 41.644042], [-93.684179, 41.644045], [-93.683875, 41.644058], [-93.683501, 41.644113], [-93.683261, 41.644179], [-93.682981, 41.644286], [-93.682765, 41.644402], [-93.682539, 41.644537], [-93.682355, 41.644635], [-93.682112, 41.644743], [-93.681902, 41.64481], [-93.681614, 41.644874], [-93.68136, 41.644909], [-93.681118, 41.644921], [-93.678145, 41.644948], [-93.678144, 41.644347], [-93.678143, 41.643049], [-93.678129, 41.642326], [-93.678039, 41.629496], [-93.661908, 41.629556], [-93.661116, 41.629162], [-93.659998, 41.628726], [-93.658755, 41.628262], [-93.65866, 41.624872], [-93.658546, 41.618613], [-93.658521, 41.616923], [-93.658525, 41.614964], [-93.654224, 41.614961], [-93.654223, 41.614433], [-93.655635, 41.614431], [-93.65563, 41.613572], [-93.655626, 41.612942], [-93.655963, 41.61294], [-93.655962, 41.612685], [-93.655665, 41.612683], [-93.655659, 41.612168], [-93.656285, 41.612164], [-93.656284, 41.611779], [-93.656722, 41.611776], [-93.656717, 41.611332], [-93.658484, 41.611351], [-93.658477, 41.610734], [-93.65906, 41.610733], [-93.659395, 41.610584], [-93.659606, 41.61049], [-93.659953, 41.610387], [-93.660486, 41.610396], [-93.661678, 41.610404], [-93.663316, 41.610411], [-93.66331, 41.607942], [-93.663645, 41.607932], [-93.663967, 41.607718], [-93.664091, 41.607569], [-93.664252, 41.607391], [-93.664562, 41.607186], [-93.664772, 41.607083], [-93.665305, 41.606598], [-93.665651, 41.606197], [-93.666159, 41.605815], [-93.667552, 41.607061], [-93.668124, 41.607535], [-93.668106, 41.603989], [-93.672951, 41.604004], [-93.674448, 41.604009], [-93.675193, 41.603998], [-93.676105, 41.603987], [-93.67645, 41.603987], [-93.677748, 41.603985], [-93.677803, 41.607631], [-93.677834, 41.60989], [-93.6779, 41.61126], [-93.679052, 41.611253], [-93.680263, 41.611253], [-93.682681, 41.611252], [-93.682729, 41.614881], [-93.684538, 41.614847], [-93.684755, 41.629467], [-93.688956, 41.629439], [-93.688989, 41.63671], [-93.694435, 41.636697], [-93.694436, 41.638056], [-93.69495, 41.638054], [-93.694941, 41.640029], [-93.694422, 41.64003], [-93.694415, 41.641312], [-93.693782, 41.641318], [-93.693074, 41.641325], [-93.693067, 41.642559], [-93.69306, 41.643835], [-93.695873, 41.643808], [-93.695871, 41.644055], [-93.695037, 41.644063], [-93.695033, 41.64485], [-93.694847, 41.645698], [-93.692656, 41.64572], [-93.692663, 41.644086], [-93.69057, 41.644106]]]}, "properties": {"name": "Beaverdale", "projects": 0, "tif_npv": 0, "cost": 0, "net_gain": 0, "assessed": 0}}, {"type": "Feature", "geometry": {"type": "Polygon", "coordinates": [[[-93.67299, 41.611333], [-93.672971, 41.604033], [-93.674468, 41.604037], [-93.674414, 41.59665], [-93.674403, 41.591289], [-93.677782, 41.591296], [-93.679196, 41.591354], [-93.681063, 41.591694], [-93.681459, 41.591739], [-93.682046, 41.591871], [-93.682625, 41.591973], [-93.683778, 41.59211], [-93.69378, 41.592615], [-93.693771, 41.598993], [-93.693694, 41.599212], [-93.693517, 41.599452], [-93.693205, 41.599778], [-93.693064, 41.600077], [-93.693078, 41.600434], [-93.693125, 41.611284], [-93.682701, 41.61128], [-93.680283, 41.611281], [-93.679072, 41.611282], [-93.67792, 41.611289], [-93.67299, 41.611336], [-93.67299, 41.611333]]]}, "properties": {"name": "Waveland Park", "projects": 0, "tif_npv": 0, "cost": 0, "net_gain": 0, "assessed": 0}}, {"type": "Feature", "geometry": {"type": "Polygon", "coordinates": [[[-93.645009, 41.611374], [-93.644811, 41.610922], [-93.644612, 41.610462], [-93.644414, 41.609994], [-93.644027, 41.609089], [-93.64386, 41.608567], [-93.643858, 41.60772], [-93.643853, 41.605892], [-93.643859, 41.604561], [-93.643858, 41.604141], [-93.643844, 41.601759], [-93.643832, 41.600414], [-93.643756, 41.599646], [-93.643749, 41.598915], [-93.643744, 41.598359], [-93.643771, 41.597939], [-93.643836, 41.597635], [-93.643928, 41.597415], [-93.644114, 41.597015], [-93.644207, 41.59676], [-93.644266, 41.596538], [-93.644293, 41.59616], [-93.6443, 41.595859], [-93.64514, 41.59583], [-93.645804, 41.595768], [-93.646581, 41.595656], [-93.647378, 41.59549], [-93.647759, 41.595393], [-93.648256, 41.595242], [-93.648518, 41.595162], [-93.648938, 41.595008], [-93.649696, 41.594724], [-93.650952, 41.594269], [-93.651899, 41.593917], [-93.652489, 41.593709], [-93.652717, 41.593641], [-93.653155, 41.593518], [-93.653663, 41.593391], [-93.654075, 41.593313], [-93.654399, 41.593256], [-93.654804, 41.593196], [-93.655275, 41.593142], [-93.656124, 41.593068], [-93.658253, 41.593065], [-93.658537, 41.5931], [-93.65933, 41.593109], [-93.662703, 41.59313], [-93.665164, 41.593162], [-93.666536, 41.593195], [-93.66688, 41.593198], [-93.66733, 41.593185], [-93.668058, 41.593113], [-93.668463, 41.593046], [-93.669013, 41.59292], [-93.669368, 41.592819], [-93.669845, 41.59266], [-93.670272, 41.592488], [-93.671527, 41.591957], [-93.671976, 41.591764], [-93.672259, 41.59166], [-93.672459, 41.59158], [-93.672859, 41.591463], [-93.673281, 41.59137], [-93.673614, 41.59132], [-93.674003, 41.591277], [-93.674383, 41.591261], [-93.674394, 41.596621], [-93.674448, 41.604009], [-93.672951, 41.604004], [-93.672971, 41.611305], [-93.672032, 41.6113], [-93.66678, 41.611307], [-93.66044, 41.611316], [-93.658484, 41.611351], [-93.656612, 41.611331], [-93.655418, 41.611334], [-93.651163, 41.611368], [-93.651161, 41.61323], [-93.648818, 41.613234], [-93.648787, 41.611379], [-93.645009, 41.611374]]]}, "properties": {"name": "Drake", "projects": 4, "tif_npv": 931319, "cost": 15680000, "net_gain": 2438540, "assessed": 8866500}}, {"type": "Feature", "geometry": {"type": "Polygon", "coordinates": [[[-93.600956, 41.64795], [-93.600935, 41.645878], [-93.600778, 41.644716], [-93.600928, 41.644212], [-93.601386, 41.644211], [-93.600928, 41.64419], [-93.600926, 41.643915], [-93.600685, 41.643915], [-93.600687, 41.643033], [-93.600724, 41.64249], [-93.600694, 41.639517], [-93.60221, 41.639514], [-93.602221, 41.63813], [-93.601738, 41.638131], [-93.601737, 41.638607], [-93.600639, 41.638607], [-93.6007, 41.636795], [-93.594939, 41.636821], [-93.592104, 41.622277], [-93.605744, 41.622252], [-93.610595, 41.622274], [-93.619987, 41.622265], [-93.619983, 41.620096], [-93.619889, 41.616319], [-93.619884, 41.614044], [-93.619867, 41.613331], [-93.620045, 41.613127], [-93.620778, 41.612781], [-93.624414, 41.613564], [-93.625284, 41.613862], [-93.62633, 41.614097], [-93.627253, 41.614306], [-93.627392, 41.614456], [-93.628046, 41.615162], [-93.628487, 41.616217], [-93.628229, 41.618921], [-93.629022, 41.619975], [-93.630868, 41.620369], [-93.63324, 41.619641], [-93.636226, 41.618648], [-93.638159, 41.618778], [-93.640621, 41.619303], [-93.64247, 41.620883], [-93.643793, 41.623057], [-93.644678, 41.62576], [-93.645134, 41.627758], [-93.644528, 41.628896], [-93.643313, 41.631178], [-93.642157, 41.633346], [-93.64213, 41.633534], [-93.641976, 41.634601], [-93.641664, 41.636767], [-93.640145, 41.636758], [-93.640073, 41.638662], [-93.640009, 41.63895], [-93.639901, 41.639173], [-93.639616, 41.639506], [-93.639213, 41.639772], [-93.638935, 41.639886], [-93.638635, 41.639963], [-93.638111, 41.640007], [-93.637516, 41.639995], [-93.637517, 41.639583], [-93.635978, 41.639551], [-93.635726, 41.639636], [-93.634651, 41.637708], [-93.636245, 41.637656], [-93.636251, 41.636754], [-93.630737, 41.636751], [-93.625466, 41.636749], [-93.625076, 41.636749], [-93.62481, 41.636749], [-93.604812, 41.636786], [-93.604812, 41.637692], [-93.602463, 41.637697], [-93.602462, 41.638606], [-93.602943, 41.638605], [-93.602942, 41.639513], [-93.605377, 41.639508], [-93.605377, 41.640361], [-93.607829, 41.640357], [-93.602522, 41.640476], [-93.602518, 41.641672], [-93.603389, 41.641671], [-93.603389, 41.641946], [-93.604322, 41.641938], [-93.605375, 41.641836], [-93.605372, 41.643939], [-93.60781, 41.643956], [-93.607813, 41.647683], [-93.610246, 41.647681], [-93.610246, 41.648998], [-93.605382, 41.649004], [-93.605382, 41.648784], [-93.601898, 41.648597], [-93.601428, 41.648479], [-93.601117, 41.648252], [-93.600956, 41.64795]], [[-93.607748, 41.644664], [-93.606473, 41.644665], [-93.606473, 41.644138], [-93.607748, 41.644137], [-93.607748, 41.644664]], [[-93.600717, 41.65418], [-93.600714, 41.653206], [-93.601262, 41.653138], [-93.601297, 41.65274], [-93.600749, 41.65274], [-93.600711, 41.652301], [-93.600931, 41.652302], [-93.601544, 41.652234], [-93.60154, 41.651354], [-93.600949, 41.651355], [-93.600981, 41.650875], [-93.600762, 41.650874], [-93.600761, 41.650627], [-93.601075, 41.650425], [-93.603571, 41.65017], [-93.603572, 41.65042], [-93.603215, 41.65042], [-93.603215, 41.650873], [-93.602678, 41.650873], [-93.602677, 41.651352], [-93.601831, 41.651354], [-93.601838, 41.652686], [-93.601546, 41.652686], [-93.601547, 41.65307], [-93.601694, 41.653207], [-93.601649, 41.654179], [-93.600717, 41.65418]]]}, "properties": {"name": "Highland Park/Oak Park", "projects": 6, "tif_npv": 2063223, "cost": 13335000, "net_gain": 4850130, "assessed": 3050700}}, {"type": "Feature", "geometry": {"type": "Polygon", "coordinates": [[[-93.64255, 41.573427], [-93.640886, 41.573045], [-93.638712, 41.573336], [-93.63641, 41.574011], [-93.633595, 41.574014], [-93.630945, 41.57352], [-93.630522, 41.573441], [-93.626041, 41.572101], [-93.624762, 41.572103], [-93.623603, 41.572493], [-93.622947, 41.570656], [-93.622871, 41.570335], [-93.622855, 41.56879], [-93.622842, 41.568469], [-93.623028, 41.567338], [-93.62354, 41.565857], [-93.623877, 41.564943], [-93.624628, 41.563745], [-93.624728, 41.563518], [-93.625466, 41.562339], [-93.625591, 41.562085], [-93.625641, 41.561849], [-93.62564, 41.561434], [-93.625753, 41.561132], [-93.625714, 41.560567], [-93.625709, 41.558125], [-93.625703, 41.557274], [-93.625693, 41.556995], [-93.625708, 41.556687], [-93.625719, 41.556375], [-93.625802, 41.555451], [-93.625842, 41.554926], [-93.625846, 41.554414], [-93.625837, 41.553984], [-93.625763, 41.553652], [-93.625741, 41.552951], [-93.625741, 41.551824], [-93.625753, 41.550913], [-93.625751, 41.550011], [-93.625775, 41.549387], [-93.625833, 41.549169], [-93.625834, 41.548216], [-93.630567, 41.548204], [-93.635382, 41.548219], [-93.645071, 41.548221], [-93.64513, 41.562681], [-93.64501, 41.56883], [-93.644969, 41.577077], [-93.644928, 41.581899], [-93.644925, 41.582226], [-93.643168, 41.582508], [-93.642118, 41.582276], [-93.641514, 41.582181], [-93.640941, 41.581896], [-93.640647, 41.580924], [-93.641284, 41.579482], [-93.642179, 41.579193], [-93.643073, 41.578231], [-93.64324, 41.577957], [-93.643838, 41.576981], [-93.643963, 41.575635], [-93.643448, 41.574099], [-93.64255, 41.573427]]]}, "properties": {"name": "Grays Lake", "projects": 0, "tif_npv": 0, "cost": 0, "net_gain": 0, "assessed": 0}}, {"type": "Feature", "geometry": {"type": "Polygon", "coordinates": [[[-93.635382, 41.548219], [-93.630567, 41.548204], [-93.625834, 41.548216], [-93.625821, 41.547315], [-93.625744, 41.545479], [-93.625748, 41.540957], [-93.625727, 41.531924], [-93.625644, 41.512049], [-93.645004, 41.512076], [-93.644972, 41.52545], [-93.645092, 41.526949], [-93.645135, 41.540428], [-93.645082, 41.540985], [-93.645071, 41.548221], [-93.635382, 41.548219]]]}, "properties": {"name": "Watrous South", "projects": 3, "tif_npv": 780390, "cost": 9000000, "net_gain": 1271464, "assessed": 2414200}}, {"type": "Feature", "geometry": {"type": "Polygon", "coordinates": [[[-93.517574, 41.629579], [-93.508004, 41.629534], [-93.505603, 41.629575], [-93.503243, 41.629608], [-93.503258, 41.627262], [-93.503271, 41.624468], [-93.503265, 41.622001], [-93.504654, 41.622213], [-93.505666, 41.622365], [-93.508003, 41.622416], [-93.516832, 41.6224], [-93.516832, 41.622956], [-93.517614, 41.622956], [-93.517574, 41.629579]]]}, "properties": {"name": "Brook Run", "projects": 0, "tif_npv": 0, "cost": 0, "net_gain": 0, "assessed": 0}}, {"type": "Feature", "geometry": {"type": "Polygon", "coordinates": [[[-93.558179, 41.550731], [-93.558149, 41.550449], [-93.558121, 41.547892], [-93.561409, 41.54792], [-93.56255, 41.547894], [-93.565375, 41.547915], [-93.568143, 41.547935], [-93.57041, 41.54794], [-93.574842, 41.54803], [-93.579728, 41.54804], [-93.579737, 41.54965], [-93.579738, 41.549949], [-93.57974, 41.550464], [-93.57974, 41.551073], [-93.577508, 41.550577], [-93.577436, 41.550813], [-93.577442, 41.552173], [-93.577443, 41.552596], [-93.577455, 41.55344], [-93.57746, 41.555157], [-93.577468, 41.556836], [-93.577473, 41.560536], [-93.57747, 41.561934], [-93.577434, 41.56222], [-93.577351, 41.562463], [-93.577181, 41.562698], [-93.576889, 41.562949], [-93.57628, 41.563383], [-93.575554, 41.563879], [-93.575196, 41.564141], [-93.574963, 41.564372], [-93.574845, 41.564543], [-93.574746, 41.564747], [-93.57411, 41.566218], [-93.573996, 41.566427], [-93.572281, 41.565406], [-93.570336, 41.564216], [-93.569618, 41.563772], [-93.568637, 41.563196], [-93.567596, 41.562535], [-93.567146, 41.562211], [-93.566503, 41.561628], [-93.565736, 41.560847], [-93.565327, 41.560287], [-93.564951, 41.559625], [-93.564534, 41.558865], [-93.56425, 41.558306], [-93.563918, 41.55765], [-93.56357, 41.556967], [-93.563179, 41.556196], [-93.562651, 41.555155], [-93.562419, 41.554699], [-93.562179, 41.554244], [-93.561661, 41.553488], [-93.560306, 41.552092], [-93.559635, 41.551569], [-93.558405, 41.550869], [-93.558179, 41.550731]]]}, "properties": {"name": "River Woods", "projects": 0, "tif_npv": 0, "cost": 0, "net_gain": 0, "assessed": 0}}, {"type": "Feature", "geometry": {"type": "Polygon", "coordinates": [[[-93.672971, 41.611305], [-93.672032, 41.6113], [-93.66678, 41.611307], [-93.66044, 41.611316], [-93.658484, 41.611351], [-93.658477, 41.610734], [-93.65906, 41.610733], [-93.659395, 41.610584], [-93.659606, 41.61049], [-93.659953, 41.610387], [-93.660486, 41.610396], [-93.661678, 41.610404], [-93.663316, 41.610411], [-93.66331, 41.607942], [-93.663645, 41.607932], [-93.663967, 41.607718], [-93.664091, 41.607569], [-93.664252, 41.607391], [-93.664562, 41.607186], [-93.664772, 41.607083], [-93.665305, 41.606598], [-93.665651, 41.606197], [-93.666159, 41.605815], [-93.667552, 41.607061], [-93.668124, 41.607535], [-93.668106, 41.603989], [-93.672951, 41.604004], [-93.672971, 41.611305]]]}, "properties": {"name": "Shared Beaverdale / Drake", "projects": 0, "tif_npv": 0, "cost": 0, "net_gain": 0, "assessed": 0}}, {"type": "Feature", "geometry": {"type": "Polygon", "coordinates": [[[-93.6779, 41.61126], [-93.672971, 41.611308], [-93.672951, 41.604004], [-93.674448, 41.604009], [-93.675193, 41.603998], [-93.676105, 41.603987], [-93.67645, 41.603987], [-93.677748, 41.603985], [-93.677803, 41.607631], [-93.677834, 41.60989], [-93.6779, 41.61126]]]}, "properties": {"name": "Shared Beaverdale / Waveland Park", "projects": 0, "tif_npv": 0, "cost": 0, "net_gain": 0, "assessed": 0}}, {"type": "Feature", "geometry": {"type": "Polygon", "coordinates": [[[-93.551506, 41.627719], [-93.551685, 41.62761], [-93.551701, 41.627409], [-93.551712, 41.627208], [-93.551718, 41.627006], [-93.552633, 41.627], [-93.55263, 41.626396], [-93.551717, 41.626402], [-93.551713, 41.625528], [-93.55195, 41.625402], [-93.552275, 41.62523], [-93.552739, 41.624962], [-93.553948, 41.625013], [-93.553947, 41.625836], [-93.553956, 41.626221], [-93.553864, 41.626752], [-93.553863, 41.627527], [-93.554495, 41.627522], [-93.555396, 41.627423], [-93.556373, 41.627454], [-93.55683, 41.627473], [-93.557678, 41.627467], [-93.557678, 41.627217], [-93.557969, 41.627216], [-93.558261, 41.627214], [-93.558554, 41.627213], [-93.558553, 41.626863], [-93.558794, 41.626786], [-93.559253, 41.626783], [-93.559719, 41.626713], [-93.56, 41.626603], [-93.560237, 41.626602], [-93.560603, 41.6266], [-93.561089, 41.626597], [-93.56109, 41.62708], [-93.561366, 41.626969], [-93.561848, 41.626972], [-93.562402, 41.626976], [-93.562731, 41.626978], [-93.563169, 41.626981], [-93.563584, 41.626984], [-93.563949, 41.627014], [-93.564315, 41.627016], [-93.56468, 41.626991], [-93.564923, 41.626992], [-93.56535, 41.626995], [-93.565581, 41.626997], [-93.566019, 41.627], [-93.56602, 41.627233], [-93.566477, 41.627236], [-93.566697, 41.627234], [-93.566696, 41.626956], [-93.566694, 41.626499], [-93.568083, 41.626508], [-93.569288, 41.626516], [-93.570176, 41.626522], [-93.570724, 41.626526], [-93.570728, 41.627188], [-93.570947, 41.627188], [-93.571257, 41.627188], [-93.571523, 41.627189], [-93.571521, 41.626887], [-93.572096, 41.626888], [-93.572517, 41.626889], [-93.572585, 41.626384], [-93.572934, 41.626203], [-93.573247, 41.626041], [-93.574186, 41.626002], [-93.575658, 41.626004], [-93.575661, 41.627225], [-93.575662, 41.627622], [-93.573781, 41.627751], [-93.572054, 41.627744], [-93.570843, 41.62774], [-93.567952, 41.627731], [-93.564289, 41.627697], [-93.561223, 41.627673], [-93.55949, 41.627692], [-93.556924, 41.627699], [-93.555469, 41.62771], [-93.552588, 41.627716], [-93.551506, 41.627719]]]}, "properties": {"name": "Shared Douglas Acres/Fairmont Park", "projects": 0, "tif_npv": 0, "cost": 0, "net_gain": 0, "assessed": 0}}, {"type": "Feature", "geometry": {"type": "Polygon", "coordinates": [[[-93.68092, 41.584859], [-93.680711, 41.584755], [-93.680445, 41.584717], [-93.679805, 41.584544], [-93.679569, 41.584482], [-93.679266, 41.584452], [-93.679176, 41.583622], [-93.679182, 41.581713], [-93.679246, 41.581151], [-93.679294, 41.580735], [-93.679187, 41.580052], [-93.679188, 41.579764], [-93.67919, 41.579374], [-93.679191, 41.578906], [-93.679192, 41.578631], [-93.679193, 41.578357], [-93.679194, 41.578083], [-93.679195, 41.577809], [-93.679196, 41.577534], [-93.679196, 41.577303], [-93.684071, 41.577304], [-93.68407, 41.577488], [-93.684066, 41.578156], [-93.684064, 41.578472], [-93.684056, 41.579703], [-93.684054, 41.580018], [-93.684051, 41.580567], [-93.68405, 41.580792], [-93.684048, 41.581065], [-93.684046, 41.581339], [-93.684045, 41.581614], [-93.684043, 41.581811], [-93.684042, 41.581981], [-93.684041, 41.582163], [-93.68404, 41.582437], [-93.684038, 41.582615], [-93.684037, 41.582837], [-93.684035, 41.583123], [-93.684034, 41.583301], [-93.684033, 41.583479], [-93.684032, 41.583671], [-93.68403, 41.583945], [-93.684289, 41.583945], [-93.684548, 41.583944], [-93.684544, 41.584463], [-93.68473, 41.584013], [-93.684988, 41.584012], [-93.685246, 41.583943], [-93.685247, 41.58372], [-93.685523, 41.583619], [-93.685749, 41.583718], [-93.686393, 41.584122], [-93.68654, 41.583617], [-93.686867, 41.583597], [-93.686993, 41.583425], [-93.687306, 41.583398], [-93.687448, 41.583053], [-93.687449, 41.582877], [-93.687972, 41.582877], [-93.688301, 41.582812], [-93.688627, 41.582812], [-93.68888, 41.58293], [-93.688886, 41.582097], [-93.688889, 41.581799], [-93.68889, 41.581579], [-93.688892, 41.581359], [-93.688894, 41.58114], [-93.688895, 41.58092], [-93.689534, 41.580917], [-93.689951, 41.580915], [-93.689946, 41.581645], [-93.690302, 41.581643], [-93.690712, 41.581597], [-93.690715, 41.580911], [-93.691175, 41.580909], [-93.691195, 41.581126], [-93.691193, 41.581642], [-93.691521, 41.581643], [-93.692015, 41.581644], [-93.692017, 41.580904], [-93.69227, 41.580903], [-93.693073, 41.580899], [-93.693073, 41.581174], [-93.693074, 41.58145], [-93.693074, 41.58163], [-93.693075, 41.581905], [-93.693075, 41.582181], [-93.693624, 41.582182], [-93.693626, 41.58273], [-93.693867, 41.582797], [-93.693866, 41.582397], [-93.694326, 41.582398], [-93.694619, 41.582399], [-93.694912, 41.582399], [-93.694911, 41.582212], [-93.694911, 41.582024], [-93.695458, 41.582025], [-93.695459, 41.582332], [-93.69597, 41.582484], [-93.695972, 41.582695], [-93.696116, 41.582338], [-93.696482, 41.582322], [-93.696481, 41.582138], [-93.696683, 41.58239], [-93.697003, 41.582391], [-93.697004, 41.582633], [-93.697167, 41.582276], [-93.697572, 41.582276], [-93.697977, 41.582277], [-93.697978, 41.582556], [-93.698197, 41.582613], [-93.698159, 41.582261], [-93.698572, 41.582259], [-93.698571, 41.581985], [-93.69857, 41.581712], [-93.698568, 41.581439], [-93.698567, 41.581165], [-93.698566, 41.580892], [-93.698564, 41.58049], [-93.699616, 41.581329], [-93.700592, 41.582108], [-93.701204, 41.582596], [-93.701692, 41.582585], [-93.700952, 41.581995], [-93.701662, 41.581995], [-93.702385, 41.581994], [-93.702385, 41.582584], [-93.702549, 41.582036], [-93.702877, 41.582036], [-93.702875, 41.581404], [-93.702981, 41.581952], [-93.702984, 41.582467], [-93.703167, 41.582575], [-93.703387, 41.582612], [-93.702497, 41.582694], [-93.701149, 41.582694], [-93.699939, 41.582699], [-93.69806, 41.582698], [-93.697774, 41.582722], [-93.696758, 41.582766], [-93.696228, 41.582788], [-93.694043, 41.582886], [-93.693755, 41.582845], [-93.691731, 41.582633], [-93.691395, 41.582622], [-93.691113, 41.582677], [-93.69082, 41.582768], [-93.68969, 41.583144], [-93.687642, 41.583829], [-93.686173, 41.584326], [-93.685891, 41.584434], [-93.685546, 41.584521], [-93.685272, 41.584556], [-93.683977, 41.584552], [-93.683515, 41.584546], [-93.683237, 41.584538], [-93.682902, 41.584559], [-93.682621, 41.584598], [-93.681599, 41.58477], [-93.681366, 41.58481], [-93.681135, 41.584848], [-93.68092, 41.584859]]]}, "properties": {"name": "Shared Waterbury/Westwood", "projects": 0, "tif_npv": 0, "cost": 0, "net_gain": 0, "assessed": 0}}, {"type": "Feature", "geometry": {"type": "Polygon", "coordinates": [[[-93.643783, 41.600414], [-93.637801, 41.600421], [-93.637775, 41.598493], [-93.637725, 41.598286], [-93.636051, 41.596155], [-93.635846, 41.595993], [-93.637046, 41.595992], [-93.64374, 41.595859], [-93.6443, 41.595859], [-93.644293, 41.59616], [-93.644288, 41.596385], [-93.64424, 41.596636], [-93.644154, 41.596905], [-93.643928, 41.597415], [-93.643836, 41.597635], [-93.643771, 41.597939], [-93.643753, 41.598224], [-93.643783, 41.600414]]]}, "properties": {"name": "Good Park", "projects": 0, "tif_npv": 0, "cost": 0, "net_gain": 0, "assessed": 0}}, {"type": "Feature", "geometry": {"type": "Polygon", "coordinates": [[[-93.648277, 41.627686], [-93.645871, 41.627673], [-93.645134, 41.627758], [-93.644678, 41.62576], [-93.643793, 41.623057], [-93.64247, 41.620883], [-93.640621, 41.619303], [-93.636226, 41.618648], [-93.630868, 41.620369], [-93.629022, 41.619975], [-93.628229, 41.618921], [-93.628487, 41.616217], [-93.628046, 41.615162], [-93.627392, 41.614456], [-93.628669, 41.614888], [-93.630641, 41.614364], [-93.63089, 41.614507], [-93.631079, 41.614612], [-93.631483, 41.614767], [-93.631714, 41.614823], [-93.632146, 41.614873], [-93.632498, 41.614866], [-93.632792, 41.614825], [-93.633232, 41.614765], [-93.633671, 41.614705], [-93.634295, 41.614646], [-93.634889, 41.614622], [-93.635278, 41.614614], [-93.635625, 41.614626], [-93.636235, 41.614699], [-93.636789, 41.614808], [-93.637114, 41.614883], [-93.637441, 41.614929], [-93.637841, 41.614955], [-93.639043, 41.615014], [-93.641176, 41.615048], [-93.643361, 41.615054], [-93.646448, 41.615055], [-93.648173, 41.615021], [-93.65, 41.615013], [-93.651737, 41.614992], [-93.653063, 41.614956], [-93.654224, 41.614961], [-93.658525, 41.614964], [-93.658521, 41.616923], [-93.658546, 41.618613], [-93.65866, 41.624872], [-93.658755, 41.628262], [-93.659998, 41.628726], [-93.661116, 41.629162], [-93.661908, 41.629556], [-93.660468, 41.629561], [-93.659309, 41.629562], [-93.658308, 41.629494], [-93.657423, 41.629371], [-93.656452, 41.629161], [-93.65512, 41.628693], [-93.654572, 41.628471], [-93.653796, 41.628213], [-93.653295, 41.628067], [-93.652402, 41.627869], [-93.651447, 41.627741], [-93.650961, 41.6277], [-93.649725, 41.627696], [-93.648277, 41.627686]]]}, "properties": {"name": "Prospect Park", "projects": 0, "tif_npv": 0, "cost": 0, "net_gain": 0, "assessed": 0}}, {"type": "Feature", "geometry": {"type": "Polygon", "coordinates": [[[-93.625834, 41.548216], [-93.625829, 41.549344], [-93.625741, 41.551824], [-93.625763, 41.553652], [-93.625772, 41.55394], [-93.625845, 41.554625], [-93.625808, 41.555371], [-93.616138, 41.55541], [-93.606598, 41.555369], [-93.606512, 41.548129], [-93.612521, 41.548147], [-93.613253, 41.548149], [-93.614924, 41.548154], [-93.616129, 41.54815], [-93.616088, 41.540947], [-93.625748, 41.540957], [-93.625746, 41.544175], [-93.625745, 41.545613], [-93.62576, 41.546695], [-93.625766, 41.547226], [-93.625827, 41.547749], [-93.625834, 41.548216]]]}, "properties": {"name": "Watrous Heights", "projects": 0, "tif_npv": 0, "cost": 0, "net_gain": 0, "assessed": 0}}, {"type": "Feature", "geometry": {"type": "Polygon", "coordinates": [[[-93.68092, 41.584859], [-93.681172, 41.584842], [-93.68149, 41.584789], [-93.681607, 41.586855], [-93.681611, 41.588078], [-93.681618, 41.589917], [-93.68162, 41.59177], [-93.681286, 41.591711], [-93.681111, 41.591464], [-93.680674, 41.591463], [-93.680449, 41.591463], [-93.680448, 41.591217], [-93.680993, 41.591217], [-93.680448, 41.591123], [-93.680447, 41.590939], [-93.680446, 41.590664], [-93.680444, 41.59039], [-93.680667, 41.59039], [-93.680882, 41.590257], [-93.680881, 41.589983], [-93.681434, 41.589983], [-93.680949, 41.589948], [-93.680948, 41.589691], [-93.680947, 41.589432], [-93.680946, 41.589262], [-93.680946, 41.589089], [-93.680945, 41.588892], [-93.680944, 41.588713], [-93.680943, 41.588526], [-93.680943, 41.588345], [-93.680942, 41.588164], [-93.681428, 41.588164], [-93.681428, 41.587986], [-93.680942, 41.587986], [-93.680941, 41.587803], [-93.68094, 41.587621], [-93.68094, 41.587439], [-93.680939, 41.587257], [-93.680938, 41.587075], [-93.680937, 41.586893], [-93.680937, 41.586711], [-93.680936, 41.586537], [-93.681423, 41.586536], [-93.681422, 41.586262], [-93.680935, 41.586262], [-93.680934, 41.586057], [-93.680933, 41.585853], [-93.680932, 41.585657], [-93.680931, 41.585474], [-93.68093, 41.585243], [-93.680928, 41.584979], [-93.68092, 41.584859]]]}, "properties": {"name": "Shared Waterbury/Ingersoll Park", "projects": 0, "tif_npv": 0, "cost": 0, "net_gain": 0, "assessed": 0}}, {"type": "Feature", "geometry": {"type": "Polygon", "coordinates": [[[-93.527306, 41.6115], [-93.527323, 41.607875], [-93.529863, 41.607876], [-93.532009, 41.607878], [-93.532157, 41.607454], [-93.532158, 41.607105], [-93.532158, 41.606757], [-93.532159, 41.606409], [-93.53216, 41.60606], [-93.53216, 41.605712], [-93.532161, 41.605363], [-93.532162, 41.60508], [-93.532162, 41.604914], [-93.531776, 41.60453], [-93.531662, 41.604356], [-93.531832, 41.604111], [-93.531913, 41.603897], [-93.531903, 41.603712], [-93.531791, 41.603498], [-93.531597, 41.603383], [-93.531341, 41.603161], [-93.5313, 41.602885], [-93.5313, 41.602716], [-93.531167, 41.60257], [-93.530953, 41.602379], [-93.53083, 41.602233], [-93.530769, 41.602064], [-93.530595, 41.601819], [-93.53037, 41.601581], [-93.530227, 41.601436], [-93.530145, 41.601213], [-93.529981, 41.600945], [-93.529868, 41.600631], [-93.533373, 41.600651], [-93.5489, 41.600585], [-93.549929, 41.600581], [-93.550928, 41.600576], [-93.551474, 41.600574], [-93.551472, 41.612437], [-93.546007, 41.613772], [-93.541897, 41.61508], [-93.5299, 41.615116], [-93.529895, 41.611503], [-93.527306, 41.6115]]]}, "properties": {"name": "Grays Woods", "projects": 0, "tif_npv": 0, "cost": 0, "net_gain": 0, "assessed": 0}}, {"type": "Feature", "geometry": {"type": "Polygon", "coordinates": [[[-93.641664, 41.636767], [-93.641976, 41.634601], [-93.642059, 41.633677], [-93.642157, 41.633346], [-93.643313, 41.631178], [-93.644528, 41.628896], [-93.645134, 41.627758], [-93.645882, 41.627672], [-93.648277, 41.627686], [-93.649725, 41.627696], [-93.650961, 41.6277], [-93.651447, 41.627741], [-93.651713, 41.62777], [-93.652402, 41.627869], [-93.653295, 41.628067], [-93.653796, 41.628213], [-93.654572, 41.628471], [-93.65512, 41.628693], [-93.656452, 41.629161], [-93.657423, 41.629371], [-93.658308, 41.629494], [-93.658785, 41.629528], [-93.659309, 41.629562], [-93.660468, 41.629561], [-93.661908, 41.629556], [-93.678039, 41.629496], [-93.678078, 41.637846], [-93.67809, 41.640449], [-93.678098, 41.64232], [-93.676909, 41.64233], [-93.676913, 41.642743], [-93.674283, 41.642756], [-93.674257, 41.643881], [-93.673503, 41.643886], [-93.673505, 41.644506], [-93.673321, 41.644123], [-93.66856, 41.64415], [-93.668692, 41.644297], [-93.668934, 41.644545], [-93.669198, 41.644779], [-93.669484, 41.644999], [-93.66979, 41.645203], [-93.670114, 41.64539], [-93.670392, 41.645529], [-93.671459, 41.646032], [-93.671111, 41.646045], [-93.670888, 41.645998], [-93.670622, 41.645945], [-93.670524, 41.645784], [-93.670236, 41.645731], [-93.669946, 41.645682], [-93.669656, 41.645636], [-93.669364, 41.645594], [-93.669072, 41.645555], [-93.668779, 41.64552], [-93.668544, 41.645494], [-93.668193, 41.645459], [-93.667684, 41.645418], [-93.667361, 41.645398], [-93.667036, 41.645381], [-93.66507, 41.645401], [-93.664784, 41.645384], [-93.664491, 41.645363], [-93.664199, 41.645338], [-93.663906, 41.645309], [-93.663613, 41.645274], [-93.663321, 41.645235], [-93.662841, 41.64516], [-93.661361, 41.644843], [-93.659151, 41.644149], [-93.658821, 41.644148], [-93.656001, 41.643086], [-93.655241, 41.642727], [-93.654234, 41.642058], [-93.653355, 41.641176], [-93.652755, 41.640198], [-93.652541, 41.639614], [-93.652428, 41.639081], [-93.652111, 41.63683], [-93.641664, 41.636767]]]}, "properties": {"name": "Lower Beaver", "projects": 0, "tif_npv": 0, "cost": 0, "net_gain": 0, "assessed": 0}}, {"type": "Feature", "geometry": {"type": "Polygon", "coordinates": [[[-93.602622, 41.555354], [-93.601101, 41.555342], [-93.598801, 41.555344], [-93.597874, 41.555338], [-93.59693, 41.555327], [-93.596921, 41.553469], [-93.596918, 41.55126], [-93.596939, 41.548093], [-93.596846, 41.540647], [-93.596807, 41.535411], [-93.596793, 41.526312], [-93.602274, 41.52639], [-93.606121, 41.52642], [-93.606443, 41.526356], [-93.608951, 41.526375], [-93.611612, 41.526394], [-93.616071, 41.526385], [-93.620695, 41.526444], [-93.622395, 41.526427], [-93.625718, 41.526484], [-93.625737, 41.533731], [-93.625748, 41.540957], [-93.616088, 41.540947], [-93.616126, 41.548166], [-93.614924, 41.548154], [-93.612521, 41.548147], [-93.606512, 41.548129], [-93.606529, 41.549572], [-93.606546, 41.551011], [-93.606565, 41.552598], [-93.606596, 41.554495], [-93.606598, 41.55537], [-93.604179, 41.555359], [-93.602622, 41.555354]]]}, "properties": {"name": "South Central DSM", "projects": 1, "tif_npv": 0, "cost": 0, "net_gain": 0, "assessed": 56000}}, {"type": "Feature", "geometry": {"type": "Polygon", "coordinates": [[[-93.639043, 41.615014], [-93.637841, 41.614955], [-93.637441, 41.614929], [-93.637114, 41.614883], [-93.636789, 41.614808], [-93.636235, 41.614699], [-93.635981, 41.614668], [-93.635625, 41.614626], [-93.635278, 41.614614], [-93.635007, 41.614618], [-93.634493, 41.614627], [-93.634045, 41.61467], [-93.633671, 41.614705], [-93.633232, 41.614765], [-93.632973, 41.614799], [-93.632498, 41.614866], [-93.632146, 41.614873], [-93.63183, 41.614841], [-93.63156, 41.614786], [-93.631258, 41.614688], [-93.63089, 41.614507], [-93.630641, 41.614364], [-93.630643, 41.614172], [-93.630891, 41.614183], [-93.631113, 41.614127], [-93.631282, 41.613926], [-93.631416, 41.613743], [-93.631581, 41.613507], [-93.631803, 41.613342], [-93.632011, 41.613265], [-93.63223, 41.613231], [-93.632467, 41.613204], [-93.63265, 41.613074], [-93.632674, 41.612857], [-93.632592, 41.612653], [-93.632394, 41.61241], [-93.632239, 41.612232], [-93.632221, 41.612042], [-93.632432, 41.61192], [-93.63264, 41.611814], [-93.632866, 41.611731], [-93.633151, 41.611625], [-93.633334, 41.611492], [-93.633634, 41.611309], [-93.633923, 41.611169], [-93.634253, 41.61114], [-93.636614, 41.611144], [-93.637411, 41.611155], [-93.637418, 41.611824], [-93.637581, 41.611957], [-93.637717, 41.612162], [-93.639039, 41.61216], [-93.639045, 41.612645], [-93.638395, 41.612637], [-93.638392, 41.613574], [-93.639026, 41.613573], [-93.639043, 41.615014]]]}, "properties": {"name": "Chautauqua Park", "projects": 0, "tif_npv": 0, "cost": 0, "net_gain": 0, "assessed": 0}}, {"type": "Feature", "geometry": {"type": "Polygon", "coordinates": [[[-93.619712, 41.600319], [-93.619693, 41.599498], [-93.619629, 41.597508], [-93.619634, 41.596962], [-93.619762, 41.595733], [-93.622945, 41.595775], [-93.626854, 41.595787], [-93.629294, 41.595861], [-93.629685, 41.595873], [-93.631984, 41.59598], [-93.635004, 41.596115], [-93.636051, 41.596155], [-93.637448, 41.59794], [-93.637725, 41.598286], [-93.637775, 41.598493], [-93.637788, 41.600421], [-93.630574, 41.600438], [-93.62997, 41.600625], [-93.629377, 41.600795], [-93.627221, 41.600806], [-93.625761, 41.600801], [-93.625295, 41.600737], [-93.625048, 41.600664], [-93.624377, 41.600394], [-93.624077, 41.600321], [-93.623751, 41.600315], [-93.619712, 41.600319]]]}, "properties": {"name": "Cheatom Park", "projects": 1, "tif_npv": 0, "cost": 0, "net_gain": 0, "assessed": 1750300}}, {"type": "Feature", "geometry": {"type": "Polygon", "coordinates": [[[-93.528596, 41.636539], [-93.528594, 41.635593], [-93.529943, 41.635593], [-93.52993, 41.62969], [-93.527824, 41.629691], [-93.527864, 41.62237], [-93.527261, 41.622368], [-93.527268, 41.620554], [-93.529909, 41.620547], [-93.5299, 41.615204], [-93.530091, 41.615116], [-93.541897, 41.61508], [-93.546007, 41.613772], [-93.551489, 41.612447], [-93.551521, 41.622322], [-93.551531, 41.625493], [-93.541899, 41.630535], [-93.532096, 41.635729], [-93.529811, 41.636932], [-93.529122, 41.637306], [-93.528878, 41.637019], [-93.528747, 41.636867], [-93.528639, 41.636717], [-93.528596, 41.636553], [-93.528596, 41.636539]]]}, "properties": {"name": "Sheridan Gardens", "projects": 0, "tif_npv": 0, "cost": 0, "net_gain": 0, "assessed": 0}}]}